{
"type": "FeatureCollection",
"name": "TacoRide-edited-tracks",
"crs": { "type": "name", "properties": { "name": "urn:ogc:def:crs:OGC:1.3:CRS84" } },
"features": [
{ "type": "Feature", "properties": { "name": "Cuauhtémoc Track Me", "type": "other" }, "geometry": { "type": "MultiLineString", "coordinates": [ [ [ -99.174633985385299, 19.416043097153306 ], [ -99.174646222963929, 19.416058016940951 ], [ -99.174668183550239, 19.416009653359652 ], [ -99.174670362845063, 19.416012922301888 ], [ -99.174745129421353, 19.416404440999031 ], [ -99.174716798588634, 19.416378289461136 ], [ -99.174675391986966, 19.416400836780667 ], [ -99.174627782776952, 19.41634769551456 ], [ -99.174566930159926, 19.4163369666785 ], [ -99.174549831077456, 19.416316682472825 ], [ -99.17454706504941, 19.416313581168652 ], [ -99.174553686752915, 19.416283825412393 ], [ -99.174522338435054, 19.416368817910552 ], [ -99.174376744776964, 19.416243759915233 ], [ -99.174298793077469, 19.416128676384687 ], [ -99.174276748672128, 19.416114343330264 ], [ -99.174247831106186, 19.416129179298878 ], [ -99.174241041764617, 19.416148960590363 ], [ -99.174197372049093, 19.416177375242114 ], [ -99.174165017902851, 19.416191121563315 ], [ -99.174134423956275, 19.416238479316235 ], [ -99.174118833616376, 19.41625289618969 ], [ -99.174100225791335, 19.416267732158303 ], [ -99.174014730378985, 19.416327830404043 ], [ -99.173964858055115, 19.41636772826314 ], [ -99.173775678500533, 19.416590351611376 ], [ -99.173734942451119, 19.416632428765297 ], [ -99.173709629103541, 19.416663441807032 ], [ -99.173700660467148, 19.416668470948935 ], [ -99.173678364604712, 19.416700238361955 ], [ -99.173646345734596, 19.416762683540583 ], [ -99.173628324642777, 19.416850442066789 ], [ -99.173627989366651, 19.416991593316197 ], [ -99.17362991720438, 19.417027132585645 ], [ -99.173653554171324, 19.417123859748244 ], [ -99.173657828941941, 19.417177923023701 ], [ -99.173622038215399, 19.417415633797646 ], [ -99.173624468967319, 19.417485957965255 ], [ -99.173621367663145, 19.417563825845718 ], [ -99.17359571903944, 19.417661475017667 ], [ -99.173602340742946, 19.417719393968582 ], [ -99.173625223338604, 19.417770020663738 ], [ -99.173574596643448, 19.417899521067739 ], [ -99.173562945798039, 19.417962217703462 ], [ -99.173571495339274, 19.41805399954319 ], [ -99.173588762059808, 19.418127927929163 ], [ -99.173608040437102, 19.418182577937841 ], [ -99.173958236351609, 19.418278550729156 ], [ -99.173998218029737, 19.418297577649355 ], [ -99.174016071483493, 19.418304786086082 ], [ -99.174040881916881, 19.418334625661373 ], [ -99.174064854159951, 19.418393298983574 ], [ -99.17407063767314, 19.418453397229314 ], [ -99.174036858603358, 19.418628327548504 ], [ -99.173986231908202, 19.418763276189566 ], [ -99.173991261050105, 19.41884214989841 ], [ -99.174112631008029, 19.418965280056 ], [ -99.174116151407361, 19.419061336666346 ], [ -99.174074996262789, 19.419136187061667 ], [ -99.174062339589, 19.419144736602902 ], [ -99.174019675701857, 19.419165020808578 ], [ -99.173972737044096, 19.419210618361831 ], [ -99.173957733437419, 19.419222688302398 ], [ -99.173880452290177, 19.419300137087703 ], [ -99.173819264397025, 19.419327042996883 ], [ -99.173691524192691, 19.419417986646295 ], [ -99.173631174489856, 19.419425362721086 ], [ -99.173617344349623, 19.419424356892705 ], [ -99.173514498397708, 19.419377082958817 ], [ -99.173407461494207, 19.419373981654644 ], [ -99.173318445682526, 19.419403988867998 ], [ -99.173236722126603, 19.419413963332772 ], [ -99.173178048804402, 19.419443970546126 ], [ -99.173120548948646, 19.41947104409337 ], [ -99.173064474016428, 19.419480431824923 ], [ -99.172951737418771, 19.419472385197878 ], [ -99.172779992222786, 19.419506080448627 ], [ -99.172630878165364, 19.419535165652633 ], [ -99.172561056911945, 19.419550923630595 ], [ -99.172547645866871, 19.419556120410562 ], [ -99.172499952837825, 19.419587552547455 ], [ -99.172453265637159, 19.419612279161811 ], [ -99.172403225675225, 19.419662822037935 ], [ -99.172376990318298, 19.419701546430588 ], [ -99.172355365008116, 19.419725853949785 ], [ -99.17234337888658, 19.419740187004209 ], [ -99.172295853495598, 19.419800033792853 ], [ -99.172286465764046, 19.419806823134422 ], [ -99.172189738601446, 19.419802548363805 ], [ -99.172072140499949, 19.419820988550782 ], [ -99.171998798847198, 19.419849822297692 ], [ -99.171961667016149, 19.419870441779494 ], [ -99.171885726973414, 19.41988829523325 ], [ -99.171818671748042, 19.41988879814744 ], [ -99.171792436391115, 19.419886032119393 ], [ -99.171765949577093, 19.419879326596856 ], [ -99.171695541590452, 19.419858371838927 ], [ -99.17158892378211, 19.419875387102365 ], [ -99.171572998166084, 19.419885193929076 ], [ -99.171475851908326, 19.419918972998857 ], [ -99.171329587697983, 19.419863233342767 ], [ -99.171314081177115, 19.419856946915388 ], [ -99.171290025115013, 19.419842949137092 ], [ -99.171321792528033, 19.419851498678327 ], [ -99.171380717307329, 19.419835237786174 ], [ -99.171341070905328, 19.41987806931138 ], [ -99.171333443373442, 19.419886954128742 ], [ -99.171339059248567, 19.419899024069309 ], [ -99.171276530250907, 19.419837249442935 ], [ -99.171292288228869, 19.41983406431973 ], [ -99.171323720365763, 19.419831717386842 ], [ -99.171373844146729, 19.419834399595857 ], [ -99.17155078612268, 19.419778240844607 ], [ -99.171590432524681, 19.419779665768147 ], [ -99.171648686751723, 19.4198062364012 ], [ -99.171675173565745, 19.419810762628913 ], [ -99.171679532155395, 19.419815121218562 ], [ -99.171701325103641, 19.419823838397861 ], [ -99.171785144135356, 19.419819144532084 ], [ -99.171820431947708, 19.419814366847277 ], [ -99.171876087784767, 19.41981989890337 ], [ -99.171996871009469, 19.419746976345778 ], [ -99.172054370865226, 19.419727362692356 ], [ -99.172137519344687, 19.419696852564812 ], [ -99.172148080542684, 19.41969039849937 ], [ -99.172146823257208, 19.419680088758469 ], [ -99.172165850177407, 19.419673718512058 ], [ -99.172166269272566, 19.419667264446616 ], [ -99.172168616205454, 19.419664079323411 ], [ -99.172148499637842, 19.419667599722743 ], [ -99.172144141048193, 19.419664246961474 ], [ -99.172134334221482, 19.419671958312392 ], [ -99.172128299251199, 19.419664917513728 ], [ -99.172130478546023, 19.419657541438937 ], [ -99.172123856842518, 19.419637341052294 ], [ -99.172100638970733, 19.419589564204216 ], [ -99.17207264341414, 19.419590486213565 ], [ -99.172060657292604, 19.41959367133677 ], [ -99.172055460512638, 19.419592916965485 ], [ -99.17205361649394, 19.419586546719074 ], [ -99.17205068282783, 19.41958294250071 ], [ -99.172049341723323, 19.419576153159142 ], [ -99.172053867951035, 19.419568022713065 ], [ -99.172048084437847, 19.419562323018909 ], [ -99.172042133286595, 19.419553689658642 ], [ -99.172034338116646, 19.419559556990862 ], [ -99.172037355601788, 19.419556455686688 ], [ -99.172039283439517, 19.419555282220244 ], [ -99.172036433592439, 19.41954773850739 ], [ -99.172041630372405, 19.41954187117517 ], [ -99.172049257904291, 19.419544721022248 ], [ -99.172047078609467, 19.419546481221914 ], [ -99.172054035589099, 19.419534578919411 ], [ -99.172060322016478, 19.419521922245622 ], [ -99.172062166035175, 19.419514881446958 ], [ -99.17205797508359, 19.419513791799545 ], [ -99.172051437199116, 19.41952234134078 ], [ -99.172064261510968, 19.419519240036607 ], [ -99.172243718057871, 19.419725351035595 ], [ -99.172252435237169, 19.419688051566482 ], [ -99.172248160466552, 19.419683944433928 ], [ -99.172242460772395, 19.419679418206215 ], [ -99.17223634198308, 19.419684279710054 ], [ -99.172228379175067, 19.419693667441607 ], [ -99.172213124111295, 19.419666845351458 ], [ -99.172207256779075, 19.419666258618236 ], [ -99.17220558039844, 19.419665168970823 ], [ -99.172202395275235, 19.419654775410891 ], [ -99.17220164090395, 19.419658798724413 ], [ -99.172206753864884, 19.419671874493361 ], [ -99.172198791056871, 19.4196732994169 ], [ -99.172202395275235, 19.419682519510388 ], [ -99.172209687530994, 19.419684363529086 ], [ -99.172210358083248, 19.41968159750104 ], [ -99.172194851562381, 19.419683273881674 ], [ -99.172190660610795, 19.419680843129754 ], [ -99.172180686146021, 19.419675227254629 ], [ -99.172180518507957, 19.419666929170489 ], [ -99.172174399718642, 19.419650919735432 ], [ -99.172172136604786, 19.419649997726083 ], [ -99.172173058614135, 19.419644046574831 ], [ -99.172176830470562, 19.41965326666832 ], [ -99.172165766358376, 19.419654523953795 ], [ -99.172157132998109, 19.419655278325081 ], [ -99.172150259837508, 19.419650249183178 ], [ -99.17214497923851, 19.419650752097368 ], [ -99.172137770801783, 19.419659050181508 ], [ -99.172138776630163, 19.419657373800874 ], [ -99.172144057229161, 19.4196542724967 ], [ -99.172152187675238, 19.419646393507719 ], [ -99.172150176018476, 19.419635664671659 ], [ -99.172139447182417, 19.419639771804214 ], [ -99.172141961753368, 19.419640190899372 ], [ -99.172139279544353, 19.419632479548454 ], [ -99.172138022258878, 19.419630467891693 ], [ -99.172127041965723, 19.419633150100708 ], [ -99.172134669497609, 19.419637592509389 ], [ -99.172137938439846, 19.419635748490691 ], [ -99.172170292586088, 19.419606160372496 ], [ -99.172181524336338, 19.419601047411561 ], [ -99.172145063057542, 19.419593336060643 ], [ -99.17213274165988, 19.419604232534766 ], [ -99.172134250402451, 19.419599371030927 ], [ -99.172157887369394, 19.419588390737772 ], [ -99.172256626188755, 19.419591575860977 ], [ -99.172392329201102, 19.419656619429588 ], [ -99.172421749681234, 19.419655194506049 ], [ -99.172458546236157, 19.419569447636604 ], [ -99.172584693878889, 19.419525945559144 ], [ -99.172608498483896, 19.419495519250631 ], [ -99.172647641971707, 19.419357888400555 ], [ -99.172585951164365, 19.419318241998553 ], [ -99.172587795183063, 19.419314470142126 ], [ -99.172581844031811, 19.419302986934781 ], [ -99.17258963920176, 19.419275661930442 ], [ -99.172580922022462, 19.419251689687371 ], [ -99.172533145174384, 19.419166361913085 ], [ -99.172535659745336, 19.419160578399897 ], [ -99.172464078292251, 19.41904348321259 ], [ -99.172455528751016, 19.418984055519104 ], [ -99.172476651147008, 19.418951282277703 ], [ -99.172593075782061, 19.41881088539958 ], [ -99.172771945595741, 19.41872538998723 ], [ -99.172871019691229, 19.418686917051673 ], [ -99.172882921993732, 19.418677529320121 ], [ -99.172918125987053, 19.418644169345498 ], [ -99.172944445163012, 19.418622795492411 ], [ -99.173110658302903, 19.418514668941498 ], [ -99.17339145205915, 19.418444931507111 ], [ -99.1735580842942, 19.418449625372887 ], [ -99.173784395679832, 19.418384581804276 ], [ -99.173980364575982, 19.418343594297767 ], [ -99.174205418676138, 19.418305875733495 ], [ -99.174340534955263, 19.418285759165883 ], [ -99.174347827211022, 19.418289447203279 ], [ -99.174359058961272, 19.418294476345181 ], [ -99.174375655129552, 19.418307384476066 ], [ -99.174374649301171, 19.418312497437 ], [ -99.174378337338567, 19.418307971209288 ], [ -99.174388479441404, 19.418293051421642 ], [ -99.174398118630052, 19.418287184089422 ], [ -99.174398789182305, 19.418292883783579 ], [ -99.174399962648749, 19.4183056242764 ], [ -99.174407422542572, 19.418307971209288 ], [ -99.174429718405008, 19.418305791914463 ], [ -99.174432652071118, 19.418305791914463 ], [ -99.17444346472621, 19.418304283171892 ], [ -99.174472633749247, 19.418300595134497 ], [ -99.174471376463771, 19.41829975694418 ], [ -99.174468442797661, 19.418299924582243 ], [ -99.174469280987978, 19.41829833202064 ], [ -99.174477495253086, 19.418294643983245 ], [ -99.174480764195323, 19.418295482173562 ], [ -99.174552345648408, 19.418280059471726 ], [ -99.174571875482798, 19.41827536560595 ], [ -99.174683354794979, 19.418206717818975 ], [ -99.174849232658744, 19.418108062818646 ], [ -99.174992982298136, 19.417982250452042 ], [ -99.175046375021338, 19.417939921841025 ], [ -99.17505819350481, 19.417931456118822 ], [ -99.17508409358561, 19.417909495532513 ], [ -99.175165733322501, 19.417845038697124 ], [ -99.175241841003299, 19.417764823883772 ], [ -99.175275787711143, 19.417710257694125 ], [ -99.175303196534514, 19.417628617957234 ], [ -99.175377879291773, 19.417485874146223 ], [ -99.175401516258717, 19.417384034022689 ], [ -99.175411071628332, 19.417349919676781 ], [ -99.175407718867064, 19.417322427034378 ], [ -99.17548474855721, 19.417205331847072 ], [ -99.175592958927155, 19.416989246383309 ], [ -99.175748778507113, 19.416792942211032 ], [ -99.175837878137827, 19.416681630536914 ], [ -99.175928989425302, 19.416581969708204 ], [ -99.175969390198588, 19.416403686627746 ], [ -99.175999397411942, 19.416347527876496 ], [ -99.176056897267699, 19.416253734380007 ], [ -99.176121773198247, 19.416096992790699 ], [ -99.17613317258656, 19.416088778525591 ], [ -99.176136190071702, 19.416075870394707 ], [ -99.176140464842319, 19.416074277833104 ], [ -99.17615027166903, 19.416063381358981 ], [ -99.176153540611267, 19.416056927293539 ], [ -99.176158737391233, 19.416047120466828 ], [ -99.176173489540815, 19.416016275063157 ], [ -99.176176255568862, 19.416009988635778 ], [ -99.1762675344944, 19.415919296443462 ], [ -99.176348252221942, 19.415784599259496 ], [ -99.176427461206913, 19.415626851841807 ], [ -99.176435424014926, 19.415598269551992 ], [ -99.176498875021935, 19.41548578441143 ], [ -99.176589818671346, 19.41519794985652 ], [ -99.176734574139118, 19.415049087256193 ], [ -99.176787547767162, 19.414915563538671 ], [ -99.176793163642287, 19.414892178028822 ], [ -99.176819231361151, 19.414816070348024 ], [ -99.176835995167494, 19.414771478623152 ], [ -99.176945881918073, 19.414578275755048 ], [ -99.177061971276999, 19.414337296038866 ], [ -99.177141347900033, 19.414207125082612 ], [ -99.177178898826241, 19.414132945239544 ], [ -99.177211923524737, 19.414073685184121 ], [ -99.177333461120725, 19.413914093747735 ], [ -99.177400097250938, 19.413850139826536 ], [ -99.177427254617214, 19.413808062672615 ], [ -99.177516438066959, 19.413605136796832 ], [ -99.177566729485989, 19.413484772667289 ], [ -99.177585924044251, 19.413469098508358 ], [ -99.177615931257606, 19.413433559238911 ], [ -99.177641663700342, 19.413381088525057 ], [ -99.177677035331726, 19.413221916183829 ], [ -99.177678376436234, 19.41315108910203 ], [ -99.177739480510354, 19.413059139624238 ], [ -99.177907034754753, 19.412872055545449 ], [ -99.177997894585133, 19.41270986571908 ], [ -99.17811163701117, 19.412540635094047 ], [ -99.178202580660582, 19.412399483844638 ], [ -99.178236359730363, 19.412363693118095 ], [ -99.178295284509659, 19.412291860207915 ], [ -99.178314981982112, 19.412248525768518 ], [ -99.178321938961744, 19.412197144702077 ], [ -99.178329985588789, 19.412146098911762 ], [ -99.178408188745379, 19.412073930725455 ], [ -99.178514555096626, 19.411953734233975 ], [ -99.178576832637191, 19.411804033443332 ], [ -99.178602648898959, 19.411703450605273 ], [ -99.178604828193784, 19.411687692627311 ], [ -99.178616730496287, 19.411634970456362 ], [ -99.178619245067239, 19.4116226490587 ], [ -99.178644390776753, 19.411593396216631 ], [ -99.178643133491278, 19.411588367074728 ], [ -99.178639696910977, 19.411553833633661 ], [ -99.178653191775084, 19.411501782014966 ], [ -99.178665429353714, 19.411486526951194 ], [ -99.178761569783092, 19.411327186971903 ], [ -99.178834743797779, 19.411177821457386 ], [ -99.178862320259213, 19.411160219460726 ], [ -99.178949659690261, 19.41103876568377 ], [ -99.178988635540009, 19.410966765135527 ], [ -99.179002046585083, 19.410922424867749 ], [ -99.179073628038168, 19.41078906878829 ], [ -99.179093996062875, 19.410754283890128 ], [ -99.179175887256861, 19.410676835104823 ], [ -99.179185274988413, 19.410656299442053 ], [ -99.179192064329982, 19.410610953345895 ], [ -99.179202793166041, 19.410587064921856 ], [ -99.179288037121296, 19.410405429080129 ], [ -99.179301783442497, 19.4103844743222 ], [ -99.179324749857187, 19.410369051620364 ], [ -99.179339585825801, 19.410364776849747 ], [ -99.179385686293244, 19.410364776849747 ], [ -99.179395325481892, 19.410374583676457 ], [ -99.179431451484561, 19.410389754921198 ], [ -99.17946363799274, 19.410390090197325 ], [ -99.179531447589397, 19.410388078540564 ], [ -99.179584756493568, 19.410384893417358 ], [ -99.17986337095499, 19.410379277542233 ], [ -99.179953560233116, 19.410395454615355 ], [ -99.179986333474517, 19.410414732992649 ], [ -99.180085239931941, 19.410473825410008 ], [ -99.180216416716576, 19.41052277572453 ], [ -99.180365363135934, 19.410553285852075 ], [ -99.180412637069821, 19.410550436004996 ], [ -99.180446583777666, 19.410564098507166 ], [ -99.180549932643771, 19.410596368834376 ], [ -99.180640876293182, 19.410613048821688 ], [ -99.180653281509876, 19.410623945295811 ], [ -99.180657556280494, 19.410628220066428 ], [ -99.180667279288173, 19.410636099055409 ], [ -99.180675996467471, 19.410641128197312 ], [ -99.180685970932245, 19.41063953563571 ], [ -99.180692173540592, 19.410633333027363 ], [ -99.180701142176986, 19.410628471523523 ], [ -99.180701728910208, 19.410629561170936 ], [ -99.180703237652779, 19.410632243379951 ], [ -99.180750595405698, 19.410649593919516 ], [ -99.180915635079145, 19.410801725462079 ], [ -99.181025186553597, 19.410940697416663 ], [ -99.181099953129888, 19.411013452336192 ], [ -99.181251665577292, 19.41108369268477 ], [ -99.181573363021016, 19.411154268309474 ], [ -99.181730356067419, 19.411216797307134 ], [ -99.181979633867741, 19.411299275234342 ], [ -99.182178033515811, 19.411418046802282 ], [ -99.182280041277409, 19.411481330171227 ], [ -99.182414319366217, 19.411631198599935 ], [ -99.182399734854698, 19.411718035116792 ], [ -99.182325135916471, 19.411991368979216 ], [ -99.182239472866058, 19.412227487191558 ], [ -99.182221032679081, 19.412386994808912 ], [ -99.182209717109799, 19.412419851869345 ], [ -99.18219018727541, 19.412450194358826 ], [ -99.182146182283759, 19.412462180480361 ], [ -99.182134279981256, 19.412466371431947 ], [ -99.182079546153545, 19.41247433423996 ], [ -99.181993883103132, 19.412461090832949 ], [ -99.181949459016323, 19.412460587918758 ], [ -99.181942585855722, 19.412474418058991 ], [ -99.181916853412986, 19.412479195743799 ], [ -99.181911153718829, 19.412483386695385 ], [ -99.181901179254055, 19.412511633709073 ], [ -99.18190143071115, 19.412510460242629 ], [ -99.181902268901467, 19.412514483556151 ], [ -99.181899670511484, 19.412513645365834 ], [ -99.181886594742537, 19.412509873509407 ], [ -99.181873435154557, 19.412497971206903 ], [ -99.181855330243707, 19.412510376423597 ], [ -99.181805290281773, 19.412514483556151 ], [ -99.181770840659738, 19.41253543831408 ], [ -99.181771846488118, 19.412544742226601 ], [ -99.181791292503476, 19.412593776360154 ], [ -99.181791795417666, 19.412599140778184 ], [ -99.181792717427015, 19.412600146606565 ], [ -99.181786347180605, 19.412600062787533 ], [ -99.181781820952892, 19.412610288709402 ], [ -99.181764721870422, 19.412610623985529 ], [ -99.181761117652059, 19.412605846300721 ], [ -99.181750472635031, 19.412582041695714 ], [ -99.181753154844046, 19.41257843747735 ], [ -99.181765895336866, 19.412581454962492 ], [ -99.181765895336866, 19.412582293152809 ], [ -99.181712921708822, 19.412578688934445 ], [ -99.181716693565249, 19.412577180191875 ], [ -99.181719627231359, 19.412576342001557 ], [ -99.181716693565249, 19.412575922906399 ], [ -99.181714178994298, 19.412574330344796 ], [ -99.181713340803981, 19.412577264010906 ], [ -99.181711748242378, 19.412579191848636 ], [ -99.181700348854065, 19.412583885714412 ], [ -99.181698840111494, 19.412587573751807 ], [ -99.181710323318839, 19.412560919299722 ], [ -99.181730942800641, 19.412569217383862 ], [ -99.181737480685115, 19.412559997290373 ], [ -99.181745443493128, 19.412557817995548 ], [ -99.181727254763246, 19.412545328959823 ], [ -99.181716777384281, 19.412544993683696 ], [ -99.181715352460742, 19.412550274282694 ], [ -99.181711077690125, 19.412559745833278 ], [ -99.181716274470091, 19.41256619989872 ], [ -99.181726751849055, 19.412575336173177 ], [ -99.181726668030024, 19.412573743611574 ], [ -99.181730691343546, 19.412573156878352 ], [ -99.181723734363914, 19.412565194070339 ], [ -99.181728260591626, 19.412562679499388 ], [ -99.181708730757236, 19.412568463012576 ], [ -99.181709485128522, 19.412574246525764 ], [ -99.181713424623013, 19.412570055574179 ], [ -99.181718621402979, 19.412564942613244 ], [ -99.181720549240708, 19.412557650357485 ], [ -99.181739827618003, 19.412557734176517 ], [ -99.181749885901809, 19.412579862400889 ], [ -99.181754747405648, 19.412578856572509 ], [ -99.181759441271424, 19.412578018382192 ], [ -99.18176706880331, 19.412576593458652 ], [ -99.18177142739296, 19.41257843747735 ], [ -99.18176899664104, 19.412577347829938 ], [ -99.181765476241708, 19.412571061402559 ], [ -99.181764638051391, 19.412575839087367 ], [ -99.181762039661407, 19.412580030038953 ], [ -99.181753154844046, 19.412579443305731 ], [ -99.18174996972084, 19.412582544609904 ], [ -99.181742090731859, 19.412587657570839 ], [ -99.181748125702143, 19.412588328123093 ], [ -99.18175139464438, 19.412582041695714 ], [ -99.181752735748887, 19.412583131343126 ], [ -99.18174603022635, 19.412579191848636 ], [ -99.181749131530523, 19.412573156878352 ], [ -99.18174552731216, 19.412568882107735 ], [ -99.181753741577268, 19.412571145221591 ], [ -99.181752065196633, 19.412572318688035 ], [ -99.181741923093796, 19.412573492154479 ], [ -99.181744856759906, 19.412574078887701 ], [ -99.181750975549221, 19.412582376971841 ], [ -99.181740079075098, 19.412582460790873 ], [ -99.181737983599305, 19.412577347829938 ], [ -99.181730188429356, 19.412566367536783 ], [ -99.181745275855064, 19.412569217383862 ], [ -99.181773019954562, 19.412566535174847 ], [ -99.181775953620672, 19.412571145221591 ], [ -99.181787939742208, 19.412576928734779 ], [ -99.181776456534863, 19.412574330344796 ], [ -99.18174653314054, 19.412549184635282 ], [ -99.181733122095466, 19.41255153156817 ], [ -99.181709820404649, 19.412561673671007 ], [ -99.181705880910158, 19.412559494376183 ], [ -99.181706216186285, 19.412557482719421 ], [ -99.181711245328188, 19.412556057795882 ], [ -99.181725326925516, 19.412555890157819 ], [ -99.181731026619673, 19.412557231262326 ], [ -99.181734127923846, 19.412555890157819 ], [ -99.181732619181275, 19.412556895986199 ], [ -99.181733373552561, 19.412570642307401 ], [ -99.181744437664747, 19.412575419992208 ], [ -99.181746616959572, 19.412575839087367 ], [ -99.181749131530523, 19.41257257014513 ], [ -99.181747371330857, 19.41257307305932 ], [ -99.181753573939204, 19.412574833258986 ], [ -99.181766398251057, 19.412580449134111 ], [ -99.181768745183945, 19.412582628428936 ], [ -99.181770840659738, 19.412581119686365 ], [ -99.181770170107484, 19.412585059180856 ], [ -99.181761536747217, 19.412593943998218 ], [ -99.181763883680105, 19.412592519074678 ], [ -99.181761033833027, 19.412593524903059 ], [ -99.181780563667417, 19.412568295374513 ], [ -99.181805290281773, 19.412531666457653 ], [ -99.181812666356564, 19.412517920136452 ], [ -99.181830184534192, 19.412500821053982 ], [ -99.181853989139199, 19.412494199350476 ], [ -99.181863963603973, 19.412440219894052 ], [ -99.181873183697462, 19.412490176036954 ], [ -99.181875446811318, 19.412479363381863 ], [ -99.18186966329813, 19.412445165216923 ], [ -99.181890618056059, 19.412377774715424 ], [ -99.181946190074086, 19.412213992327452 ], [ -99.182003857567906, 19.412091616541147 ], [ -99.182092286646366, 19.411956164985895 ], [ -99.182154983282089, 19.41181275062263 ], [ -99.182252632454038, 19.411616446450353 ], [ -99.1822459269315, 19.411596246063709 ], [ -99.182185493409634, 19.41153765656054 ], [ -99.182092286646366, 19.411487532779574 ], [ -99.18192045763135, 19.411389799788594 ], [ -99.18174552731216, 19.411296341568232 ], [ -99.181642681360245, 19.411250660195947 ], [ -99.181629521772265, 19.411248061805964 ], [ -99.181609153747559, 19.411245128139853 ], [ -99.181587360799313, 19.411238757893443 ], [ -99.181473534554243, 19.411197518929839 ], [ -99.181429864838719, 19.411200452595949 ], [ -99.181399857625365, 19.411182180047035 ], [ -99.181364653632045, 19.411178324371576 ], [ -99.181302292272449, 19.411178240552545 ], [ -99.181240433827043, 19.41120539791882 ], [ -99.181176731362939, 19.41120975650847 ], [ -99.181131972, 19.411221155896783 ], [ -99.181120153516531, 19.411221072077751 ], [ -99.181120991706848, 19.411243954673409 ], [ -99.181032394990325, 19.41133338958025 ], [ -99.181024432182312, 19.411378232762218 ], [ -99.181005991995335, 19.411387285217643 ], [ -99.180933572351933, 19.411420729011297 ], [ -99.180800635367632, 19.411432882770896 ], [ -99.180782027542591, 19.41144922748208 ], [ -99.180646240711212, 19.411430452018976 ], [ -99.180576587095857, 19.411426680162549 ], [ -99.180522356182337, 19.411441767588258 ], [ -99.180522775277495, 19.411449395120144 ], [ -99.180475333705544, 19.411448976024985 ], [ -99.180443147197366, 19.411446042358875 ], [ -99.180427473038435, 19.411444952711463 ], [ -99.180416325107217, 19.411434475332499 ], [ -99.180419677868485, 19.411431457847357 ], [ -99.180415654554963, 19.41142475232482 ], [ -99.180419929325581, 19.411425590515137 ], [ -99.180419594049454, 19.411424668505788 ], [ -99.180420180782676, 19.41143112257123 ], [ -99.180417163297534, 19.411434475332499 ], [ -99.180414229631424, 19.411449898034334 ], [ -99.180392688140273, 19.411454927176237 ], [ -99.180400148034096, 19.411449646577239 ], [ -99.180408529937267, 19.411447132006288 ], [ -99.180409954860806, 19.411444868892431 ], [ -99.180416576564312, 19.411442019045353 ], [ -99.180397884920239, 19.411467667669058 ], [ -99.180344492197037, 19.411454675719142 ], [ -99.180193534120917, 19.41144579090178 ], [ -99.180034948512912, 19.411415699869394 ], [ -99.179870747029781, 19.411365827545524 ], [ -99.179626246914268, 19.41136809065938 ], [ -99.179448466747999, 19.411364989355206 ], [ -99.179293736815453, 19.411366917192936 ], [ -99.179277392104268, 19.41137152723968 ], [ -99.179260628297925, 19.411380076780915 ], [ -99.179252665489912, 19.411384016275406 ], [ -99.179119057953358, 19.411407988518476 ], [ -99.178908253088593, 19.411404049023986 ], [ -99.178707171231508, 19.411417795345187 ], [ -99.178591333329678, 19.411404384300113 ], [ -99.178360579535365, 19.411399522796273 ], [ -99.178139716386795, 19.411415532231331 ], [ -99.177855318412185, 19.411389129236341 ], [ -99.177645267918706, 19.411363480612636 ], [ -99.177634036168456, 19.411370353773236 ], [ -99.177602184936404, 19.411389883607626 ], [ -99.177577961236238, 19.411410083994269 ], [ -99.177542338147759, 19.411420645192266 ], [ -99.177234638482332, 19.411436738446355 ], [ -99.176999861374497, 19.411453334614635 ], [ -99.176685540005565, 19.411485688760877 ], [ -99.176557548344135, 19.411517456173897 ], [ -99.176449589431286, 19.411542266607285 ], [ -99.176214560866356, 19.411524496972561 ], [ -99.175867047160864, 19.411495327949524 ], [ -99.175841147080064, 19.411505553871393 ], [ -99.175751293078065, 19.411537237465382 ], [ -99.175631096586585, 19.411529023200274 ], [ -99.175534453243017, 19.411491891369224 ], [ -99.175336640328169, 19.411522652953863 ], [ -99.175305124372244, 19.411521563306451 ], [ -99.175173528492451, 19.411494741216302 ], [ -99.17501955293119, 19.411499937996268 ], [ -99.17484219186008, 19.411428356543183 ], [ -99.174665585160255, 19.411339676007628 ], [ -99.174426617100835, 19.411189556121826 ], [ -99.174327459186316, 19.41106072627008 ], [ -99.174165185540915, 19.410961233079433 ], [ -99.174079271033406, 19.410937177017331 ], [ -99.174042893573642, 19.410931477323174 ], [ -99.173854719847441, 19.410874480381608 ], [ -99.173730919137597, 19.410842377692461 ], [ -99.173545595258474, 19.41075973212719 ], [ -99.173315092921257, 19.410687480121851 ], [ -99.173178384080529, 19.410583879798651 ], [ -99.173149550333619, 19.410551441833377 ], [ -99.17314762249589, 19.410546664148569 ], [ -99.173147790133953, 19.410544149577618 ], [ -99.173145527020097, 19.410537779331207 ], [ -99.173145275563002, 19.410531660541892 ], [ -99.173133373260498, 19.410514561459422 ], [ -99.172976380214095, 19.410414146259427 ], [ -99.172842018306255, 19.410353293642402 ], [ -99.172750990837812, 19.41034834831953 ], [ -99.17269516736269, 19.410335440188646 ], [ -99.172664238139987, 19.410342816263437 ], [ -99.172607660293579, 19.410353628918529 ], [ -99.172543454915285, 19.410366956144571 ], [ -99.172493331134319, 19.410383217036724 ], [ -99.172442285344005, 19.410392185673118 ], [ -99.172412026673555, 19.410407859832048 ], [ -99.172350335866213, 19.410418421030045 ], [ -99.172286298125982, 19.410436945036054 ], [ -99.172271462157369, 19.41043334081769 ], [ -99.172254782170057, 19.410437364131212 ], [ -99.17220558039844, 19.410408278927207 ], [ -99.172157049179077, 19.410427138209343 ], [ -99.172019837424159, 19.410416493192315 ], [ -99.171968875452876, 19.41037324257195 ], [ -99.17195051908493, 19.410340720787644 ], [ -99.171902239322662, 19.410298727452755 ], [ -99.171785227954388, 19.410172076895833 ], [ -99.171673748642206, 19.410047940909863 ], [ -99.17155908420682, 19.409906538203359 ], [ -99.171488424763083, 19.409763123840094 ], [ -99.171477947384119, 19.409726494923234 ], [ -99.171482222154737, 19.409695649519563 ], [ -99.17148289270699, 19.409678550437093 ], [ -99.171473756432533, 19.409640999510884 ], [ -99.171458417549729, 19.409610824659467 ], [ -99.171308130025864, 19.40955676138401 ], [ -99.171201679855585, 19.409504793584347 ], [ -99.171005375683308, 19.409474534913898 ], [ -99.170933542773128, 19.409452239051461 ], [ -99.170894483104348, 19.409447964280844 ], [ -99.170599859207869, 19.409453663975 ], [ -99.170303475111723, 19.409451233223081 ], [ -99.170010695233941, 19.409466320648789 ], [ -99.169928384944797, 19.409492472186685 ], [ -99.169901898130774, 19.409488951787353 ], [ -99.169642729684711, 19.409517534077168 ], [ -99.169418346136808, 19.409603197127581 ], [ -99.169036466628313, 19.409763375297189 ], [ -99.168943343684077, 19.409736134111881 ], [ -99.168839827179909, 19.409768488258123 ], [ -99.168710242956877, 19.40981718711555 ], [ -99.168712086975574, 19.409833950921893 ], [ -99.168685181066394, 19.409875944256783 ], [ -99.16865567676723, 19.409891534596682 ], [ -99.168498432263732, 19.410021537914872 ], [ -99.168498096987605, 19.410043330863118 ], [ -99.16845778003335, 19.410141063854098 ], [ -99.168375134468079, 19.41028238274157 ], [ -99.168202467262745, 19.410496288910508 ], [ -99.168111775070429, 19.41057457588613 ], [ -99.168076822534204, 19.410602068528533 ], [ -99.168058717623353, 19.410611959174275 ], [ -99.168010354042053, 19.410672392696142 ], [ -99.168006246909499, 19.410712122917175 ], [ -99.168053017929196, 19.410736681893468 ], [ -99.168170699849725, 19.410804240033031 ], [ -99.168364657089114, 19.410907840356231 ], [ -99.168505137786269, 19.411009345203638 ], [ -99.168550567701459, 19.411024516448379 ], [ -99.168574120849371, 19.411019487306476 ], [ -99.168624244630337, 19.411056786775589 ], [ -99.168626423925161, 19.41113255918026 ], [ -99.168639667332172, 19.411169942468405 ], [ -99.168638158589602, 19.41118779592216 ], [ -99.168625082820654, 19.411215037107468 ], [ -99.168615778908134, 19.411250492557883 ], [ -99.168614270165563, 19.411270441487432 ], [ -99.1686434391886, 19.411325342953205 ], [ -99.168655425310135, 19.411348644644022 ], [ -99.168654251843691, 19.411368845030665 ], [ -99.168636566027999, 19.41143698990345 ], [ -99.168630028143525, 19.411455262452364 ], [ -99.168598428368568, 19.411472026258707 ], [ -99.168578730896115, 19.411485437303782 ], [ -99.168562470003963, 19.411686351522803 ], [ -99.168476890772581, 19.411846194416285 ], [ -99.168464737012982, 19.411860359832644 ], [ -99.168450320139527, 19.411884164437652 ], [ -99.168437495827675, 19.411936718970537 ], [ -99.168421318754554, 19.411952896043658 ], [ -99.168380666524172, 19.4120042771101 ], [ -99.168356191366911, 19.412065716460347 ], [ -99.168355269357562, 19.412143165245652 ], [ -99.168323585763574, 19.412219021469355 ], [ -99.168289052322507, 19.4122891779989 ], [ -99.168243622407317, 19.412343241274357 ], [ -99.168223757296801, 19.412377355620265 ], [ -99.168214369565248, 19.412493025884032 ], [ -99.168201293796301, 19.412537617608905 ], [ -99.168204981833696, 19.4126121327281 ], [ -99.168214872479439, 19.412697460502386 ], [ -99.16820858605206, 19.412759067490697 ], [ -99.168162569403648, 19.412910360842943 ], [ -99.168079169467092, 19.413037598133087 ], [ -99.168011946603656, 19.413140024989843 ], [ -99.167991578578949, 19.413308585062623 ], [ -99.167991494759917, 19.41333431750536 ], [ -99.16798185557127, 19.41335535608232 ], [ -99.167980346828699, 19.413365162909031 ], [ -99.167971964925528, 19.413443533703685 ], [ -99.167960062623024, 19.41348728723824 ], [ -99.167951848357916, 19.413503799587488 ], [ -99.167937431484461, 19.413644447922707 ], [ -99.167958050966263, 19.413881571963429 ], [ -99.167937431484461, 19.414132442325354 ], [ -99.16790365241468, 19.414148116484284 ], [ -99.167901137843728, 19.414161695167422 ], [ -99.16791932657361, 19.41423587501049 ], [ -99.167909352108836, 19.414303097873926 ], [ -99.167868532240391, 19.414590261876583 ], [ -99.16773559525609, 19.414841635152698 ], [ -99.167753532528877, 19.414880778640509 ], [ -99.167765518650413, 19.414888070896268 ], [ -99.167787227779627, 19.414896620437503 ], [ -99.16778932325542, 19.414953617379069 ], [ -99.16776392608881, 19.415101893246174 ], [ -99.167748754844069, 19.415270537137985 ], [ -99.16778102517128, 19.415477234870195 ], [ -99.167772056534886, 19.415491484105587 ], [ -99.167756633833051, 19.415575889870524 ], [ -99.167724782600999, 19.415760543197393 ], [ -99.167719250544906, 19.415826592594385 ], [ -99.167689746245742, 19.415913848206401 ], [ -99.167644735425711, 19.416081570088863 ], [ -99.167625289410353, 19.41611367277801 ], [ -99.167611794546247, 19.416216686367989 ], [ -99.167603999376297, 19.416233282536268 ], [ -99.167577177286148, 19.416289189830422 ], [ -99.167580865323544, 19.416300337761641 ], [ -99.167583296075463, 19.416317017748952 ], [ -99.167578434571624, 19.416325483471155 ], [ -99.167553372681141, 19.416337972506881 ], [ -99.167511044070125, 19.416387425735593 ], [ -99.167503667995334, 19.416396729648113 ], [ -99.16745756752789, 19.416439393535256 ], [ -99.167451616376638, 19.416445596143603 ], [ -99.167445246130228, 19.416446350514889 ], [ -99.167444827035069, 19.416451044380665 ], [ -99.167445078492165, 19.416461689397693 ], [ -99.167459830641747, 19.416478117927909 ], [ -99.167452286928892, 19.416518937796354 ], [ -99.167409874498844, 19.416562942788005 ], [ -99.167400067672133, 19.416568474844098 ], [ -99.167380621656775, 19.41658029332757 ], [ -99.167340388521552, 19.41659496165812 ], [ -99.16725137270987, 19.416587669402361 ], [ -99.167116675525904, 19.416545927524567 ], [ -99.166965717449784, 19.416478872299194 ], [ -99.166804030537605, 19.416394466534257 ], [ -99.166711661964655, 19.416324393823743 ], [ -99.166641673073173, 19.416245687752962 ], [ -99.166549388319254, 19.416160695254803 ], [ -99.166273958981037, 19.416061788797379 ], [ -99.166077487170696, 19.415942933410406 ], [ -99.1658856254071, 19.415833381935954 ], [ -99.165726285427809, 19.415738079696894 ], [ -99.165383130311966, 19.415560299530625 ], [ -99.165194118395448, 19.415437588468194 ], [ -99.164950121194124, 19.415323343127966 ], [ -99.16464451700449, 19.415154699236155 ], [ -99.164462629705667, 19.415042717009783 ], [ -99.164260039106011, 19.414960071444511 ], [ -99.164012772962451, 19.414998795837164 ], [ -99.163973964750767, 19.415014050900936 ], [ -99.163933647796512, 19.415031233802438 ], [ -99.163871370255947, 19.41504112444818 ], [ -99.163862820714712, 19.415028970688581 ], [ -99.163861060515046, 19.415024863556027 ], [ -99.163860641419888, 19.415020253509283 ], [ -99.16385879740119, 19.415019331499934 ], [ -99.163721585646272, 19.415045650675893 ], [ -99.163546655327082, 19.41507875919342 ], [ -99.163345489650965, 19.41515545360744 ], [ -99.163220347836614, 19.415188897401094 ], [ -99.16303887963295, 19.415241116657853 ], [ -99.162968555465341, 19.415267687290907 ], [ -99.162932680919766, 19.415271794423461 ], [ -99.162697568535805, 19.41531965509057 ], [ -99.162581143900752, 19.415349578484893 ], [ -99.162553735077381, 19.415358463302255 ], [ -99.16230839677155, 19.415421327576041 ], [ -99.161932971328497, 19.415499279275537 ], [ -99.161718646064401, 19.415541691705585 ], [ -99.161517731845379, 19.41558008082211 ], [ -99.161297539249063, 19.415599443018436 ], [ -99.161085896193981, 19.415636239573359 ], [ -99.161001658067107, 19.415659038349986 ], [ -99.160978188738227, 19.415669599547982 ], [ -99.160976260900497, 19.41567094065249 ], [ -99.160973746329546, 19.415672281756997 ], [ -99.160850029438734, 19.415709665045142 ], [ -99.160649534314871, 19.415701450780034 ], [ -99.160428754985332, 19.415734224021435 ], [ -99.160161288455129, 19.415779737755656 ], [ -99.159860629588366, 19.415869675576687 ], [ -99.159847050905228, 19.415874956175685 ], [ -99.159820061177015, 19.415888283401728 ], [ -99.159794999286532, 19.415887445211411 ], [ -99.159784521907568, 19.415882918983698 ], [ -99.159769769757986, 19.415873279795051 ], [ -99.159752754494548, 19.415885685011744 ], [ -99.159611770883203, 19.415940335020423 ], [ -99.159361068159342, 19.41597243770957 ], [ -99.159157052636147, 19.4159846752882 ], [ -99.159137522801757, 19.415993057191372 ], [ -99.159054290503263, 19.416007054969668 ], [ -99.158827057108283, 19.416055837646127 ], [ -99.15866469964385, 19.416107386350632 ], [ -99.158499743789434, 19.416132029145956 ], [ -99.158475268632174, 19.416138818487525 ], [ -99.158417684957385, 19.416156420484185 ], [ -99.158235797658563, 19.41619916819036 ], [ -99.158089365810156, 19.416250381618738 ], [ -99.157844446599483, 19.416290279477835 ], [ -99.157634982839227, 19.416317017748952 ], [ -99.157406240701675, 19.416355239227414 ], [ -99.157229047268629, 19.416423551738262 ], [ -99.157209685072303, 19.416423216462135 ], [ -99.157099965959787, 19.416438722983003 ], [ -99.157064091414213, 19.416433777660131 ], [ -99.157039364799857, 19.416422545909882 ], [ -99.157007345929742, 19.416411649435759 ], [ -99.156942721456289, 19.416418857872486 ], [ -99.156783381476998, 19.416466299444437 ], [ -99.156575929373503, 19.41648842766881 ], [ -99.156417595222592, 19.416529834270477 ], [ -99.156194971874356, 19.416580963879824 ], [ -99.155974360182881, 19.416633099317551 ], [ -99.15584921836853, 19.416669392958283 ], [ -99.15582524612546, 19.41666872240603 ], [ -99.155660457909107, 19.416673751547933 ], [ -99.15540162473917, 19.416703591123223 ], [ -99.155376646667719, 19.416691018268466 ], [ -99.15532635524869, 19.416650952771306 ], [ -99.155244883149862, 19.416576772928238 ], [ -99.155229544267058, 19.416535869240761 ], [ -99.155212277546525, 19.416487673297524 ], [ -99.155213534832001, 19.416483733803034 ], [ -99.155171038582921, 19.416430257260799 ], [ -99.155159052461386, 19.416392622515559 ], [ -99.155156454071403, 19.416352976113558 ], [ -99.15515779517591, 19.416349371895194 ], [ -99.155155783519149, 19.41634182818234 ], [ -99.155131727457047, 19.416304361075163 ], [ -99.155130470171571, 19.416295727714896 ], [ -99.155120830982924, 19.416282065212727 ], [ -99.155133822932839, 19.416274689137936 ], [ -99.155170451849699, 19.416263457387686 ], [ -99.155142288655043, 19.416251052170992 ], [ -99.155124267563224, 19.416262367740273 ], [ -99.155230969190598, 19.416254991665483 ], [ -99.155217725783587, 19.416273683309555 ], [ -99.155235830694437, 19.416304025799036 ], [ -99.155227951705456, 19.41634476184845 ], [ -99.155188137665391, 19.416331434622407 ], [ -99.155173636972904, 19.416277455165982 ], [ -99.155168943107128, 19.416251135990024 ], [ -99.155135164037347, 19.41622213460505 ], [ -99.155121082440019, 19.416207298636436 ], [ -99.155111778527498, 19.416184080764651 ], [ -99.155134493485093, 19.416183829307556 ], [ -99.15516022592783, 19.416151223704219 ], [ -99.15519542992115, 19.416100764647126 ], [ -99.155271621420979, 19.416125239804387 ], [ -99.155385699123144, 19.416162958368659 ], [ -99.155292324721813, 19.416094645857811 ], [ -99.155276231467724, 19.41609364002943 ], [ -99.155231891199946, 19.416124233976007 ], [ -99.155286457389593, 19.416198749095201 ], [ -99.155371617525816, 19.416205873712897 ], [ -99.155359379947186, 19.416199838742614 ], [ -99.155258294194937, 19.416193552315235 ], [ -99.155216384679079, 19.416184918954968 ], [ -99.15523448958993, 19.416133118793368 ], [ -99.155235327780247, 19.416121216490865 ], [ -99.155253684148192, 19.416124485433102 ], [ -99.155174139887094, 19.416112834587693 ], [ -99.155145725235343, 19.4161107391119 ], [ -99.155088057741523, 19.416106548160315 ], [ -99.155056374147534, 19.416122138500214 ], [ -99.155064839869738, 19.416142841801047 ], [ -99.155051847919822, 19.416166981682181 ], [ -99.155096020549536, 19.416178464889526 ], [ -99.155115131288767, 19.416170669719577 ], [ -99.155002729967237, 19.416127083823085 ], [ -99.154919749125838, 19.416152816265821 ], [ -99.154885383322835, 19.416173854842782 ], [ -99.154894184321165, 19.416158851236105 ], [ -99.15491689927876, 19.416125323623419 ], [ -99.155063163489103, 19.416157091036439 ], [ -99.155145473778248, 19.4161815661937 ], [ -99.155266592279077, 19.416199922561646 ], [ -99.155267598107457, 19.416200593113899 ], [ -99.155279835686088, 19.416213082149625 ], [ -99.155354350805283, 19.416241999715567 ], [ -99.155334737151861, 19.416229426860809 ], [ -99.155201883986592, 19.416178883984685 ], [ -99.155219653621316, 19.416150385513902 ], [ -99.155270280316472, 19.416130688041449 ], [ -99.155207918956876, 19.416239066049457 ], [ -99.155305484309793, 19.416262535378337 ], [ -99.155394835397601, 19.416228672489524 ], [ -99.155355859547853, 19.416305618360639 ], [ -99.155343370512128, 19.41629639826715 ], [ -99.155304227024317, 19.416267229244113 ], [ -99.155319565907121, 19.416251052170992 ], [ -99.155357955023646, 19.416260272264481 ], [ -99.155377317219973, 19.416222972795367 ], [ -99.155358877032995, 19.416135717183352 ], [ -99.155312860384583, 19.416302936151624 ], [ -99.155315291136503, 19.416280724108219 ], [ -99.155313866212964, 19.416316095739603 ], [ -99.155265837907791, 19.416314084082842 ], [ -99.15516366250813, 19.416302433237433 ], [ -99.155143043026328, 19.416274772956967 ], [ -99.155130973085761, 19.416253482922912 ], [ -99.155158381909132, 19.416264295578003 ], [ -99.155160477384925, 19.416266726329923 ], [ -99.155175648629665, 19.416282651945949 ], [ -99.155182186514139, 19.416294973343611 ], [ -99.155180342495441, 19.416312575340271 ], [ -99.155176067724824, 19.416310898959637 ], [ -99.155145725235343, 19.416280137374997 ], [ -99.155136253684759, 19.416283825412393 ], [ -99.155133236199617, 19.416287261992693 ], [ -99.155129883438349, 19.416280388832092 ], [ -99.155140360817313, 19.416265971958637 ], [ -99.155149580910802, 19.416257170960307 ], [ -99.155159639194608, 19.416254237294197 ], [ -99.15516315959394, 19.416262451559305 ], [ -99.155160980299115, 19.416272426024079 ], [ -99.155156118795276, 19.416273348033428 ], [ -99.155153352767229, 19.41628273576498 ], [ -99.155153520405293, 19.416284160688519 ], [ -99.155158465728164, 19.416266474872828 ], [ -99.155155867338181, 19.416266726329923 ], [ -99.155152095481753, 19.416270162910223 ], [ -99.155144048854709, 19.416277790442109 ], [ -99.155162069946527, 19.41629153676331 ], [ -99.155216468498111, 19.416293548420072 ], [ -99.155210517346859, 19.416294051334262 ], [ -99.155202386900783, 19.416304780170321 ], [ -99.155197525396943, 19.416306959465146 ], [ -99.155192831531167, 19.41631156951189 ], [ -99.15518956258893, 19.416310982778668 ], [ -99.155194675549865, 19.416309641674161 ], [ -99.155186377465725, 19.416313078254461 ], [ -99.155164668336511, 19.416292542591691 ], [ -99.155160896480083, 19.41629002802074 ], [ -99.155150251463056, 19.416283993050456 ], [ -99.155134577304125, 19.416280556470156 ], [ -99.155140528455377, 19.416275275871158 ], [ -99.15514362975955, 19.416258428245783 ], [ -99.155155867338181, 19.416262116283178 ], [ -99.155150419101119, 19.416279718279839 ], [ -99.155158968642354, 19.416290698572993 ], [ -99.155157040804625, 19.41630813293159 ], [ -99.155170451849699, 19.41631299443543 ], [ -99.155172798782587, 19.416318945586681 ], [ -99.155170954763889, 19.416323890909553 ], [ -99.155189730226994, 19.416323136538267 ], [ -99.155185036361217, 19.416345097124577 ], [ -99.15518126450479, 19.416346522048116 ], [ -99.155187467113137, 19.416344929486513 ], [ -99.155208170413971, 19.416352137923241 ], [ -99.155205739662051, 19.416353646665812 ], [ -99.15520858950913, 19.41634819842875 ], [ -99.155202973634005, 19.416343923658133 ], [ -99.155202219262719, 19.416343672201037 ], [ -99.155204482376575, 19.41633939743042 ], [ -99.15521546266973, 19.416337888687849 ], [ -99.15521303191781, 19.416330428794026 ], [ -99.155208170413971, 19.416328417137265 ], [ -99.155166931450367, 19.416253734380007 ], [ -99.155115131288767, 19.41607897169888 ], [ -99.155153017491102, 19.41597486846149 ], [ -99.15519006550312, 19.415961289778352 ], [ -99.155305232852697, 19.415922649204731 ], [ -99.155501620844007, 19.415860790759325 ], [ -99.155658027157187, 19.415801446884871 ], [ -99.155879141762853, 19.415740175172687 ], [ -99.156097322702408, 19.41567437723279 ], [ -99.156263452023268, 19.415615787729621 ], [ -99.156280299648643, 19.415611680597067 ], [ -99.15630703791976, 19.415618889033794 ], [ -99.156328327953815, 19.41562064923346 ], [ -99.156340146437287, 19.41561914049089 ], [ -99.156359760090709, 19.415619391947985 ], [ -99.156579030677676, 19.41555074416101 ], [ -99.156801570206881, 19.415559880435467 ], [ -99.157049674540758, 19.415510846301913 ], [ -99.157094936817884, 19.415498357266188 ], [ -99.157140534371138, 19.415487293154001 ], [ -99.157223682850599, 19.415463320910931 ], [ -99.157318482175469, 19.415446976199746 ], [ -99.157654093578458, 19.415345890447497 ], [ -99.157927092164755, 19.415263161063194 ], [ -99.158205958083272, 19.415184622630477 ], [ -99.158300589770079, 19.415161069482565 ], [ -99.158343924209476, 19.415146736428142 ], [ -99.15847166441381, 19.415124021470547 ], [ -99.158553639426827, 19.415111448615789 ], [ -99.158723540604115, 19.415093846619129 ], [ -99.158749943599105, 19.415095271542668 ], [ -99.158794367685914, 19.415118154138327 ], [ -99.15886695496738, 19.415242876857519 ], [ -99.158910121768713, 19.415417388081551 ], [ -99.159020343795419, 19.415643867105246 ], [ -99.159026127308607, 19.415680496022105 ], [ -99.159027133136988, 19.415690638124943 ], [ -99.159027887508273, 19.415701199322939 ], [ -99.159044064581394, 19.415732966735959 ], [ -99.159047836437821, 19.415747132152319 ], [ -99.15903995744884, 19.415877470746636 ], [ -99.15897055529058, 19.415997751057148 ], [ -99.158967370167375, 19.416137477383018 ], [ -99.159065522253513, 19.416332943364978 ], [ -99.159096116200089, 19.41639999859035 ], [ -99.159107264131308, 19.416475351899862 ], [ -99.159097960218787, 19.416499072685838 ], [ -99.159091422334313, 19.416628321632743 ], [ -99.159094356000423, 19.416645923629403 ], [ -99.159099217504263, 19.416666962206364 ], [ -99.159161327406764, 19.416784895583987 ], [ -99.159277752041817, 19.416816746816039 ], [ -99.159351848065853, 19.416926968842745 ], [ -99.159415634348989, 19.417061917483807 ], [ -99.159422339871526, 19.417081363499165 ], [ -99.159439019858837, 19.417143138125539 ], [ -99.159462656825781, 19.417178174480796 ], [ -99.15950465016067, 19.417306333780289 ], [ -99.159571286290884, 19.417460644617677 ], [ -99.159616632387042, 19.41763817332685 ], [ -99.15962484665215, 19.417756777256727 ], [ -99.159628786146641, 19.417841266840696 ], [ -99.159706570208073, 19.418034972622991 ], [ -99.159755939617753, 19.418088532984257 ], [ -99.159869933500886, 19.418130777776241 ], [ -99.159948220476508, 19.418150223791599 ], [ -99.160007564350963, 19.418169083073735 ], [ -99.160037487745285, 19.418161455541849 ], [ -99.160202778875828, 19.418124658986926 ], [ -99.160306546837091, 19.418113259598613 ], [ -99.160327166318893, 19.418086186051369 ], [ -99.160446776077151, 19.418069589883089 ], [ -99.160470999777317, 19.418077552691102 ], [ -99.160536546260118, 19.418063051998615 ], [ -99.160560853779316, 19.418073948472738 ], [ -99.160587759688497, 19.418077049776912 ], [ -99.160577617585659, 19.418077552691102 ], [ -99.16057082824409, 19.418074367567897 ], [ -99.160564122721553, 19.418076295405626 ], [ -99.16057568974793, 19.418074199929833 ], [ -99.160594549030066, 19.418079480528831 ], [ -99.160618269816041, 19.418082917109132 ], [ -99.160627825185657, 19.418087024241686 ], [ -99.160635620355606, 19.418091969564557 ], [ -99.160644086077809, 19.418093059211969 ], [ -99.160666046664119, 19.418118791654706 ], [ -99.160673590376973, 19.418145027011633 ], [ -99.160684570670128, 19.41811359487474 ], [ -99.160642242059112, 19.417941262945533 ], [ -99.160643080249429, 19.417819892987609 ], [ -99.160658251494169, 19.417800027877092 ], [ -99.160666717216372, 19.417783096432686 ], [ -99.160667974501848, 19.417763482779264 ], [ -99.160669734701514, 19.417753089219332 ], [ -99.16066755540669, 19.417725093662739 ], [ -99.160672416910529, 19.417716879397631 ], [ -99.160680798813701, 19.417702043429017 ], [ -99.160637967288494, 19.417678657919168 ], [ -99.16063972748816, 19.41767924465239 ], [ -99.160623298957944, 19.417663235217333 ], [ -99.160610055550933, 19.41766063682735 ], [ -99.160557920113206, 19.417603891342878 ], [ -99.160545598715544, 19.417587127536535 ], [ -99.160561691969633, 19.417551420629025 ], [ -99.160593459382653, 19.417547145858407 ], [ -99.1605962254107, 19.417524095624685 ], [ -99.160569990053773, 19.417510516941547 ], [ -99.160570576786995, 19.417515462264419 ], [ -99.160561775788665, 19.41754437983036 ], [ -99.160572253167629, 19.417562820017338 ], [ -99.160577533766627, 19.417563658207655 ], [ -99.160581221804023, 19.4176010414958 ], [ -99.160600248724222, 19.417632054537535 ], [ -99.160612821578979, 19.417667090892792 ], [ -99.160614749416709, 19.417677568271756 ], [ -99.160607792437077, 19.417693493887782 ], [ -99.160617683082819, 19.417721154168248 ], [ -99.160590274259448, 19.417678825557232 ], [ -99.160649618133903, 19.417616799473763 ], [ -99.160644421353936, 19.417615123093128 ], [ -99.16062748990953, 19.417606070637703 ], [ -99.160628831014037, 19.417616631835699 ], [ -99.160627070814371, 19.41762057133019 ], [ -99.160618269816041, 19.41762643866241 ], [ -99.16062455624342, 19.417628366500139 ], [ -99.160622963681817, 19.417628198862076 ], [ -99.160614833235741, 19.4176269415766 ], [ -99.16061332449317, 19.417629959061742 ], [ -99.160612653940916, 19.417621744796634 ], [ -99.160613156855106, 19.417623169720173 ], [ -99.160611145198345, 19.417629037052393 ], [ -99.160630675032735, 19.417555192485452 ], [ -99.160626986995339, 19.417549995705485 ], [ -99.160637548193336, 19.417560724541545 ], [ -99.16063042357564, 19.417574051767588 ], [ -99.160626735538244, 19.417590228840709 ], [ -99.160626651719213, 19.417589055374265 ], [ -99.160623550415039, 19.417585283517838 ], [ -99.160621538758278, 19.417591067031026 ], [ -99.160623047500849, 19.41759173758328 ], [ -99.160629920661449, 19.417601879686117 ], [ -99.160629836842418, 19.417604394257069 ], [ -99.16063335724175, 19.417608669027686 ], [ -99.160637129098177, 19.417614787817001 ], [ -99.16063922457397, 19.417624846100807 ], [ -99.160646349191666, 19.417630042880774 ], [ -99.160635452717543, 19.417631635442376 ], [ -99.16062455624342, 19.417631132528186 ], [ -99.160626232624054, 19.417628282681108 ], [ -99.160616425797343, 19.417628031224012 ], [ -99.160628244280815, 19.417631216347218 ], [ -99.160630088299513, 19.417631970718503 ], [ -99.160630339756608, 19.41763767041266 ], [ -99.16062313131988, 19.417635658755898 ], [ -99.160620030015707, 19.417675053700805 ], [ -99.160635033622384, 19.417696762830019 ], [ -99.160634865984321, 19.417698523029685 ], [ -99.160631764680147, 19.417699780315161 ], [ -99.160621287301183, 19.417698858305812 ], [ -99.160625142976642, 19.417696762830019 ], [ -99.160644588992, 19.417692823335528 ], [ -99.160651043057442, 19.417693829163909 ], [ -99.160658922046423, 19.417690057307482 ], [ -99.160655066370964, 19.41768947057426 ], [ -99.16064559482038, 19.417686788365245 ], [ -99.160648779943585, 19.417690560221672 ], [ -99.160645259544253, 19.417693661525846 ], [ -99.160641320049763, 19.417699193581939 ], [ -99.160629669204354, 19.417693661525846 ], [ -99.16062799282372, 19.417682262137532 ], [ -99.160620281472802, 19.417681088671088 ], [ -99.160628747195005, 19.417670359835029 ], [ -99.16063872165978, 19.417667929083109 ], [ -99.160640733316541, 19.417669773101807 ], [ -99.160648863762617, 19.417667090892792 ], [ -99.160631932318211, 19.417658373713493 ], [ -99.160636542364955, 19.417663821950555 ], [ -99.160638554021716, 19.417662061750889 ], [ -99.160646768286824, 19.417657954618335 ], [ -99.160653557628393, 19.417643286287785 ], [ -99.160656658932567, 19.417628534138203 ], [ -99.160655485466123, 19.417617972940207 ], [ -99.160638470202684, 19.417597353458405 ], [ -99.160608295351267, 19.417594419792295 ], [ -99.160599829629064, 19.417598191648722 ], [ -99.16061726398766, 19.417605651542544 ], [ -99.160620616748929, 19.417611351236701 ], [ -99.160617766901851, 19.417613362893462 ], [ -99.16062455624342, 19.41759517416358 ], [ -99.160618772730231, 19.417600035667419 ], [ -99.160621287301183, 19.417602969333529 ], [ -99.160616677254438, 19.417618224397302 ], [ -99.16062455624342, 19.417619481682777 ], [ -99.160630591213703, 19.417622834444046 ], [ -99.160632854327559, 19.417621660977602 ], [ -99.160647355020046, 19.417627528309822 ], [ -99.160647774115205, 19.417634485289454 ], [ -99.160637967288494, 19.417630042880774 ], [ -99.160633189603686, 19.417619397863746 ], [ -99.160624975338578, 19.417625097557902 ], [ -99.160622963681817, 19.417629288509488 ], [ -99.160624137148261, 19.417628785595298 ], [ -99.160624723881483, 19.417628198862076 ], [ -99.160624723881483, 19.417615542188287 ], [ -99.16062313131988, 19.417615123093128 ], [ -99.160635368898511, 19.417614117264748 ], [ -99.160666298121214, 19.417597018182278 ], [ -99.160651629790664, 19.417599616572261 ], [ -99.160645762458444, 19.417592072859406 ], [ -99.16070175357163, 19.417548989877105 ], [ -99.160679960623384, 19.417568519711494 ], [ -99.160650121048093, 19.417623169720173 ], [ -99.160654563456774, 19.417656781151891 ], [ -99.160653725266457, 19.417672958225012 ], [ -99.16065925732255, 19.417691398411989 ], [ -99.160702088847756, 19.417730793356895 ], [ -99.160763695836067, 19.417819892987609 ], [ -99.160755733028054, 19.417883930727839 ], [ -99.160750452429056, 19.417893569916487 ], [ -99.160679122433066, 19.417955260723829 ], [ -99.160620449110866, 19.417995493859053 ], [ -99.160623550415039, 19.417983340099454 ], [ -99.160622293129563, 19.417980741709471 ], [ -99.160628328099847, 19.41797143779695 ], [ -99.160628160461783, 19.417967246845365 ], [ -99.160628076642752, 19.417964983731508 ], [ -99.160618521273136, 19.417964061722159 ], [ -99.160622544586658, 19.417966660112143 ], [ -99.160614833235741, 19.417960373684764 ], [ -99.160619275644422, 19.417968755587935 ], [ -99.160607540979981, 19.41798459738493 ], [ -99.160560937598348, 19.41798317246139 ], [ -99.160486422479153, 19.418075876310468 ], [ -99.160465551540256, 19.418161874637008 ], [ -99.160431437194347, 19.418173357844353 ], [ -99.160336973145604, 19.418220296502113 ], [ -99.160312162712216, 19.418221721425653 ], [ -99.160246616229415, 19.418243849650025 ], [ -99.160105381160975, 19.418308474123478 ], [ -99.159872950986028, 19.418329764157534 ], [ -99.159749820828438, 19.418366057798266 ], [ -99.15966734290123, 19.418406374752522 ], [ -99.159625265747309, 19.418422132730484 ], [ -99.159510685130954, 19.418462365865707 ], [ -99.159176917746663, 19.418509555980563 ], [ -99.159035431221128, 19.418528331443667 ], [ -99.159002490341663, 19.418539395555854 ], [ -99.158982038497925, 19.418535456061363 ], [ -99.158979691565037, 19.418534450232983 ], [ -99.158971393480897, 19.418535623699427 ], [ -99.158955467864871, 19.418528331443667 ], [ -99.158950690180063, 19.418522799387574 ], [ -99.15889092721045, 19.418547190725803 ], [ -99.158741980791092, 19.418596643954515 ], [ -99.158588172867894, 19.418599996715784 ], [ -99.158487841486931, 19.418604774400592 ], [ -99.158461689949036, 19.41859639249742 ], [ -99.158276366069913, 19.418641570955515 ], [ -99.158097328618169, 19.418645678088069 ], [ -99.157936060801148, 19.418691275641322 ], [ -99.157743193209171, 19.418736035004258 ], [ -99.157506739720702, 19.418764617294073 ], [ -99.157326947897673, 19.418754391372204 ], [ -99.157215636223555, 19.41876545548439 ], [ -99.157092673704028, 19.418811891227961 ], [ -99.156919252127409, 19.418895877897739 ], [ -99.156856723129749, 19.418953880667686 ], [ -99.156832583248615, 19.41897994838655 ], [ -99.156737197190523, 19.419025462120771 ], [ -99.156554220244288, 19.418990844860673 ], [ -99.156451290473342, 19.418968129903078 ], [ -99.156372584402561, 19.418945163488388 ], [ -99.156318688765168, 19.418945498764515 ], [ -99.156253645196557, 19.418952958658338 ], [ -99.156134454533458, 19.418913647532463 ], [ -99.15602657943964, 19.418984977528453 ], [ -99.15600654669106, 19.41899067722261 ], [ -99.15598995052278, 19.41898925229907 ], [ -99.155932785943151, 19.418932255357504 ], [ -99.155842429026961, 19.418795881792903 ], [ -99.155747797340155, 19.418618185445666 ], [ -99.155681161209941, 19.418417941778898 ], [ -99.155660960823298, 19.418284418061376 ], [ -99.155600778758526, 19.41812876611948 ], [ -99.155562557280064, 19.418010581284761 ], [ -99.155516540631652, 19.417793657630682 ], [ -99.155576387420297, 19.417699528858066 ], [ -99.155597928911448, 19.417687458917499 ], [ -99.155803788453341, 19.417613362893462 ], [ -99.155887020751834, 19.417545553296804 ], [ -99.156089695170522, 19.417490987107158 ], [ -99.156287172809243, 19.41747447475791 ], [ -99.156406363472342, 19.417426865547895 ], [ -99.156416757032275, 19.41742368042469 ], [ -99.156423797830939, 19.417416471987963 ], [ -99.156467132270336, 19.417404485866427 ], [ -99.156541228294373, 19.417396271601319 ], [ -99.156620856374502, 19.417402977123857 ], [ -99.156681038439274, 19.417397361248732 ], [ -99.156700568273664, 19.417390739545226 ], [ -99.156733341515064, 19.417361738160253 ], [ -99.156748093664646, 19.417356289923191 ], [ -99.156764438375831, 19.417359391227365 ], [ -99.156789164990187, 19.417360397055745 ], [ -99.156789248809218, 19.417359894141555 ], [ -99.156775670126081, 19.41737238317728 ], [ -99.156776759773493, 19.417369868606329 ], [ -99.15677173063159, 19.417384034022689 ], [ -99.15677223354578, 19.417385123670101 ], [ -99.15677173063159, 19.417388727888465 ], [ -99.156770473346114, 19.417387638241053 ], [ -99.156758990138769, 19.417361319065094 ], [ -99.156758654862642, 19.417362324893475 ], [ -99.156756643205881, 19.417361989617348 ], [ -99.15675169788301, 19.417377160862088 ], [ -99.156755050644279, 19.417373389005661 ], [ -99.156765528023243, 19.417366934940219 ], [ -99.156776424497366, 19.417373472824693 ], [ -99.156768629327416, 19.417374562472105 ], [ -99.156764438375831, 19.417385123670101 ], [ -99.15676636621356, 19.417390991002321 ], [ -99.156752033159137, 19.417389817535877 ], [ -99.156744237989187, 19.417375987395644 ], [ -99.156733090057969, 19.417373221367598 ], [ -99.156726133078337, 19.417387135326862 ], [ -99.156724121421576, 19.417398031800985 ], [ -99.156729066744447, 19.417394259944558 ], [ -99.156725043430924, 19.417398367077112 ], [ -99.156718840822577, 19.417402055114508 ], [ -99.156696628779173, 19.417410185560584 ], [ -99.156684391200542, 19.417395265772939 ], [ -99.156681541353464, 19.417400546371937 ], [ -99.156690761446953, 19.417400881648064 ], [ -99.156696544960141, 19.417402725666761 ], [ -99.156700316816568, 19.417403899133205 ], [ -99.156700316816568, 19.417403480038047 ], [ -99.156699059531093, 19.417406246066093 ], [ -99.156675254926085, 19.417407922446728 ], [ -99.156674835830927, 19.417409347370267 ], [ -99.156674081459641, 19.417410353198647 ], [ -99.156678272411227, 19.417417645454407 ], [ -99.156675254926085, 19.417416723445058 ], [ -99.15667693130672, 19.417412197217345 ], [ -99.156675674021244, 19.417412197217345 ], [ -99.156675757840276, 19.417425021529198 ], [ -99.156681625172496, 19.417428793385625 ], [ -99.156678523868322, 19.417427955195308 ], [ -99.156673578545451, 19.417419154196978 ], [ -99.156665531918406, 19.417413789778948 ], [ -99.156667795032263, 19.417415969073772 ], [ -99.156668381765485, 19.417409095913172 ], [ -99.156666956841946, 19.417406832799315 ], [ -99.156665531918406, 19.417404234409332 ], [ -99.156658491119742, 19.41740557551384 ], [ -99.156666034832597, 19.417400127276778 ], [ -99.156671734526753, 19.41739778034389 ], [ -99.156672488898039, 19.417396690696478 ], [ -99.15666813030839, 19.417389985173941 ], [ -99.15666569955647, 19.417385626584291 ], [ -99.156662933528423, 19.417392583563924 ], [ -99.156661676242948, 19.417405826970935 ], [ -99.156664190813899, 19.417403396219015 ], [ -99.156666286289692, 19.417401636019349 ], [ -99.156666370108724, 19.417405994608998 ], [ -99.156669387593865, 19.417406748980284 ], [ -99.156672824174166, 19.417412951588631 ], [ -99.156679026782513, 19.417413957417011 ], [ -99.156684977933764, 19.417419992387295 ], [ -99.156688917428255, 19.417426278814673 ], [ -99.156688582152128, 19.417440360412002 ], [ -99.156688246876001, 19.417448239400983 ], [ -99.156693862751126, 19.417449329048395 ], [ -99.156702496111393, 19.417448742315173 ], [ -99.156695287674665, 19.417443377897143 ], [ -99.156672321259975, 19.417442539706826 ], [ -99.156669052317739, 19.417445138096809 ], [ -99.156668297946453, 19.417441617697477 ], [ -99.156660586595535, 19.417438097298145 ], [ -99.156654048711061, 19.417427536100149 ], [ -99.156667627394199, 19.417420327663422 ], [ -99.15665396489203, 19.41740314476192 ], [ -99.156659496948123, 19.417408341541886 ], [ -99.156665867194533, 19.417408425360918 ], [ -99.156669219955802, 19.417418651282787 ], [ -99.156665951013565, 19.417421668767929 ], [ -99.156661257147789, 19.417429128661752 ], [ -99.156663687899709, 19.417434241622686 ], [ -99.156664945185184, 19.417430972680449 ], [ -99.156664023175836, 19.417428625747561 ], [ -99.156674165278673, 19.417419238016009 ], [ -99.156673243269324, 19.417420830577612 ], [ -99.156673578545451, 19.417425775900483 ], [ -99.156686151400208, 19.417430050671101 ], [ -99.156695120036602, 19.417437929660082 ], [ -99.156698975712061, 19.417439522221684 ], [ -99.156694198027253, 19.417452346533537 ], [ -99.156702160835266, 19.417452430352569 ], [ -99.156697634607553, 19.417448742315173 ], [ -99.156695622950792, 19.417445221915841 ], [ -99.156692270189524, 19.417445054277778 ], [ -99.156694952398539, 19.417431643232703 ], [ -99.15669989772141, 19.417430385947227 ], [ -99.156703585758805, 19.417435331270099 ], [ -99.156711464747787, 19.41744128242135 ], [ -99.15671163238585, 19.41744027659297 ], [ -99.156715571880341, 19.417436085641384 ], [ -99.156720684841275, 19.417428793385625 ], [ -99.156718589365482, 19.417433571070433 ], [ -99.156719343736768, 19.417437678202987 ], [ -99.156722277402878, 19.417451927438378 ], [ -99.156718170270324, 19.417449831962585 ], [ -99.156727893278003, 19.417448826134205 ], [ -99.156717583537102, 19.41744857467711 ], [ -99.156693695113063, 19.417452681809664 ], [ -99.156688582152128, 19.417447065934539 ], [ -99.156689336523414, 19.417449496686459 ], [ -99.156706687062979, 19.417424853891134 ], [ -99.156704675406218, 19.417423261329532 ], [ -99.156712470576167, 19.417433319613338 ], [ -99.15676536038518, 19.41740364767611 ], [ -99.156768042594194, 19.417399121448398 ], [ -99.156764522194862, 19.417391493916512 ], [ -99.156823363155127, 19.417373891919851 ], [ -99.156844820827246, 19.417363163083792 ], [ -99.156853621825576, 19.417381687089801 ], [ -99.156931489706039, 19.417451927438378 ], [ -99.156944984570146, 19.417467098683119 ], [ -99.157019918784499, 19.41760154440999 ], [ -99.157090662047267, 19.417785024270415 ], [ -99.157147156074643, 19.417912345379591 ], [ -99.157199542969465, 19.418132118880749 ], [ -99.157194597646594, 19.418162880465388 ], [ -99.157186383381486, 19.418174866586924 ], [ -99.157181521877646, 19.418203281238675 ], [ -99.157175570726395, 19.41821526736021 ], [ -99.157168278470635, 19.418219290673733 ], [ -99.157159142196178, 19.418222056701779 ], [ -99.157192585989833, 19.418325824663043 ], [ -99.157211529091001, 19.418367817997932 ], [ -99.157278081402183, 19.41850352101028 ], [ -99.157342119142413, 19.418658586218953 ], [ -99.157463992014527, 19.418812729418278 ], [ -99.157651998102665, 19.418815663084388 ], [ -99.157836986705661, 19.418775597587228 ], [ -99.157964223995805, 19.418717678636312 ], [ -99.15808467194438, 19.418702675029635 ], [ -99.158239150419831, 19.418690521270037 ], [ -99.158450374379754, 19.418651461601257 ], [ -99.158750362694263, 19.418589854612947 ], [ -99.158921437337995, 19.418570827692747 ], [ -99.15919242426753, 19.41852455958724 ], [ -99.159411359578371, 19.418487343937159 ], [ -99.15956768207252, 19.418468065559864 ], [ -99.159594839438796, 19.418461695313454 ], [ -99.159808745607734, 19.418412996456027 ], [ -99.159982334822416, 19.418379468843341 ], [ -99.160138238221407, 19.418334625661373 ], [ -99.160425653681159, 19.418322639539838 ], [ -99.160638218745589, 19.418266899883747 ], [ -99.160757744684815, 19.418253153562546 ], [ -99.16081172414124, 19.41823236644268 ], [ -99.160819938406348, 19.418237144127488 ], [ -99.160817675292492, 19.418246699497104 ], [ -99.160812981426716, 19.418256422504783 ], [ -99.160812478512526, 19.41825969144702 ], [ -99.160970980301499, 19.418206717818975 ], [ -99.161128895357251, 19.418153576552868 ], [ -99.161273734644055, 19.418117618188262 ], [ -99.161560731008649, 19.418048299849033 ], [ -99.161668019369245, 19.417983675375581 ], [ -99.16172836907208, 19.417943777516484 ], [ -99.161734320223331, 19.417941933497787 ], [ -99.161758460104465, 19.417944783344865 ], [ -99.161790981888771, 19.417951237410307 ], [ -99.161821072921157, 19.417955344542861 ], [ -99.162057442590594, 19.417922738939524 ], [ -99.162180740386248, 19.417912177741528 ], [ -99.16220236569643, 19.417920894920826 ], [ -99.16221309453249, 19.417934222146869 ], [ -99.162211082875729, 19.417934725061059 ], [ -99.162201946601272, 19.417934557422996 ], [ -99.16238316334784, 19.41789566539228 ], [ -99.162568487226963, 19.417872866615653 ], [ -99.162840647622943, 19.417827017605305 ], [ -99.163124626502395, 19.417759627103806 ], [ -99.16343467310071, 19.417663067579269 ], [ -99.163693338632584, 19.417649069800973 ], [ -99.163892157375813, 19.41761177033186 ], [ -99.164134562015533, 19.417571956291795 ], [ -99.164243945851922, 19.417542451992631 ], [ -99.164290130138397, 19.417519317939878 ], [ -99.164308486506343, 19.417515797540545 ], [ -99.164326759055257, 19.417516468092799 ], [ -99.164510574191809, 19.417498363181949 ], [ -99.164747865870595, 19.417462153360248 ], [ -99.165037795901299, 19.417412029579282 ], [ -99.165153717622161, 19.417369281873107 ], [ -99.165243320167065, 19.417360983788967 ], [ -99.165273159742355, 19.417353440076113 ], [ -99.165555043146014, 19.417259730398655 ], [ -99.165630731731653, 19.417235590517521 ], [ -99.165792586281896, 19.417211366817355 ], [ -99.166021747514606, 19.417130732908845 ], [ -99.166150745004416, 19.417087230831385 ], [ -99.166295249015093, 19.417061079293489 ], [ -99.166523739695549, 19.417004585266113 ], [ -99.166845520958304, 19.416942643001676 ], [ -99.167072083801031, 19.416887070983648 ], [ -99.16718834079802, 19.416861338540912 ], [ -99.167225137352943, 19.416841976344585 ], [ -99.167315158993006, 19.416801324114203 ], [ -99.167366120964289, 19.416792858392 ], [ -99.16759142652154, 19.416804676875472 ], [ -99.16781916283071, 19.416785733774304 ], [ -99.168004654347897, 19.4167410582304 ], [ -99.168189223855734, 19.416662687435746 ], [ -99.168257620185614, 19.416636787354946 ], [ -99.168285364285111, 19.416641062125564 ], [ -99.168298523873091, 19.416650449857116 ], [ -99.168300367891788, 19.41665455698967 ], [ -99.168310845270753, 19.416666375473142 ], [ -99.168315036222339, 19.416662938892841 ], [ -99.168323250487447, 19.416660256683826 ], [ -99.168343869969249, 19.416648019105196 ], [ -99.168471777811646, 19.416645420715213 ], [ -99.168656095862389, 19.416629746556282 ], [ -99.16889606975019, 19.416595045477152 ], [ -99.169081561267376, 19.416599655523896 ], [ -99.169308124110103, 19.416580041870475 ], [ -99.169443491846323, 19.416518937796354 ], [ -99.169622696936131, 19.416476190090179 ], [ -99.169834591448307, 19.416406117379665 ], [ -99.170034248381853, 19.416388431563973 ], [ -99.170075068250299, 19.416404189541936 ], [ -99.170275395736098, 19.416555147618055 ], [ -99.170401962473989, 19.416639050468802 ], [ -99.170544119551778, 19.416725551709533 ], [ -99.170650318264961, 19.41680752672255 ], [ -99.170725168660283, 19.416876174509525 ], [ -99.17077487334609, 19.41689788363874 ], [ -99.17083396576345, 19.416949432343245 ], [ -99.170892974361777, 19.417004249989986 ], [ -99.170921137556434, 19.417048254981637 ], [ -99.170930441468954, 19.417061079293489 ], [ -99.171019457280636, 19.417200637981296 ], [ -99.171138983219862, 19.417347321286798 ], [ -99.171212995424867, 19.417488137260079 ], [ -99.171348698437214, 19.417665330693126 ], [ -99.171526059508324, 19.41793967038393 ], [ -99.171684561297297, 19.418072020635009 ], [ -99.171796459704638, 19.418173776939511 ], [ -99.171806517988443, 19.418184589594603 ], [ -99.171828897669911, 19.418197833001614 ], [ -99.171874662861228, 19.418226834386587 ], [ -99.171895952895284, 19.41826262511313 ], [ -99.171908022835851, 19.418286345899105 ], [ -99.171910118311644, 19.418294979259372 ], [ -99.171906597912312, 19.418303780257702 ], [ -99.171904167160392, 19.418313670903444 ], [ -99.171906933188438, 19.418318616226315 ], [ -99.171909280121326, 19.418332781642675 ], [ -99.17196367867291, 19.418420121073723 ], [ -99.172065518796444, 19.418573845177889 ], [ -99.172201054170728, 19.418765036389232 ], [ -99.172254363074899, 19.418851286172867 ], [ -99.172288393601775, 19.418876934796572 ], [ -99.172344887629151, 19.418928818777204 ], [ -99.172358885407448, 19.418961843475699 ], [ -99.172434154897928, 19.419136773794889 ], [ -99.172506825998425, 19.419358558952808 ], [ -99.172495929524302, 19.419501051306725 ], [ -99.172450918704271, 19.419549331068993 ], [ -99.172349330037832, 19.419588390737772 ], [ -99.172238688915968, 19.419630970805883 ], [ -99.172135926783085, 19.419680340215564 ], [ -99.172053951770067, 19.419734738767147 ], [ -99.172205496579409, 19.419686291366816 ], [ -99.172180099412799, 19.419721327722073 ], [ -99.172176998108625, 19.419719064608216 ], [ -99.172175070270896, 19.419723339378834 ], [ -99.172133579850197, 19.419738259166479 ], [ -99.172069961205125, 19.419781761243939 ], [ -99.172072140499949, 19.419779665768147 ], [ -99.172078343108296, 19.419773044064641 ], [ -99.172076750546694, 19.419774385169148 ], [ -99.172073565423489, 19.419735576957464 ], [ -99.172081528231502, 19.41972803324461 ], [ -99.172086976468563, 19.419720657169819 ], [ -99.172088066115975, 19.419709341600537 ], [ -99.17207314632833, 19.419694589450955 ], [ -99.172070967033505, 19.419684279710054 ], [ -99.172081695869565, 19.419688135385513 ], [ -99.172086976468563, 19.419683776795864 ], [ -99.172091670334339, 19.419704480096698 ], [ -99.172091586515307, 19.419711269438267 ], [ -99.172096196562052, 19.41972023807466 ], [ -99.172096196562052, 19.419723674654961 ], [ -99.172086473554373, 19.419717891141772 ], [ -99.172090329229832, 19.419737253338099 ], [ -99.172068452462554, 19.419755022972822 ], [ -99.172047581523657, 19.419728117063642 ], [ -99.172020675614476, 19.419712359085679 ], [ -99.172025872394443, 19.419706491753459 ], [ -99.172022519633174, 19.419696517288685 ], [ -99.17202964425087, 19.41968796774745 ], [ -99.172044396400452, 19.419709257781506 ], [ -99.172041462734342, 19.419711185619235 ], [ -99.172045066952705, 19.419718561694026 ], [ -99.172046491876245, 19.419742533937097 ], [ -99.172033499926329, 19.419751921668649 ], [ -99.172062082216144, 19.419732140377164 ], [ -99.172059064731002, 19.419716717675328 ], [ -99.172049174085259, 19.419715963304043 ], [ -99.172097872942686, 19.419725351035595 ], [ -99.172099716961384, 19.419738845899701 ], [ -99.172107260674238, 19.419744964689016 ], [ -99.172089071944356, 19.419742785394192 ], [ -99.172077672556043, 19.419743623584509 ], [ -99.172072727233171, 19.419741192832589 ], [ -99.172052778303623, 19.419727781787515 ], [ -99.172044396400452, 19.419734235852957 ], [ -99.172028638422489, 19.419714538380504 ], [ -99.172031655907631, 19.419709928333759 ], [ -99.172028722241521, 19.419706324115396 ], [ -99.172023944556713, 19.419715376570821 ], [ -99.172010365873575, 19.419703390449286 ], [ -99.172003241255879, 19.419711269438267 ], [ -99.172001481056213, 19.419689476490021 ], [ -99.17199058458209, 19.419712191447616 ], [ -99.171980945393443, 19.419720489531755 ], [ -99.171984633430839, 19.419717974960804 ], [ -99.171989997848868, 19.41970313899219 ], [ -99.171986561268568, 19.419682854786515 ], [ -99.171983124688268, 19.419681262224913 ], [ -99.172037355601788, 19.419703977182508 ], [ -99.172054454684258, 19.419698445126414 ], [ -99.172140369191766, 19.419708587229252 ], [ -99.172221170738339, 19.419722920283675 ], [ -99.172304989770055, 19.41975636407733 ], [ -99.172412948682904, 19.419691991060972 ], [ -99.172467766329646, 19.419666174799204 ], [ -99.172483775764704, 19.419632479548454 ], [ -99.172497773543, 19.419615883380175 ], [ -99.172515962272882, 19.419611860066652 ], [ -99.172526020556688, 19.419611440971494 ], [ -99.172530127689242, 19.419606244191527 ], [ -99.172551333904266, 19.419579841196537 ], [ -99.172558961436152, 19.419558132067323 ], [ -99.17260967195034, 19.419539021328092 ], [ -99.172677733004093, 19.419507253915071 ], [ -99.172737244516611, 19.419517982751131 ], [ -99.172848556190729, 19.419554276391864 ], [ -99.173040837049484, 19.419475989416242 ], [ -99.173111245036125, 19.41946174018085 ], [ -99.173228675499558, 19.419449837878346 ], [ -99.173320373520255, 19.419443467631936 ], [ -99.173429673537612, 19.419445898383856 ], [ -99.173566717654467, 19.419424189254642 ], [ -99.173641484230757, 19.419424943625927 ], [ -99.173739971593022, 19.419407760724425 ], [ -99.173889672383666, 19.419390996918082 ], [ -99.174015317112207, 19.41930927336216 ], [ -99.174055466428399, 19.419286223128438 ], [ -99.174103327095509, 19.419280020520091 ], [ -99.174175998196006, 19.419277254492044 ], [ -99.174279766157269, 19.419238781556487 ], [ -99.174331147223711, 19.419208522886038 ], [ -99.17441613972187, 19.419201230630279 ], [ -99.174467772245407, 19.419186059385538 ], [ -99.174544466659427, 19.41918077878654 ], [ -99.1746770683676, 19.419198129326105 ], [ -99.174768347293139, 19.419195530936122 ], [ -99.17482609860599, 19.419162925332785 ], [ -99.174943445250392, 19.419114477932453 ], [ -99.175000777468085, 19.419084386900067 ], [ -99.175119549036026, 19.41905957646668 ], [ -99.175204960629344, 19.41906108520925 ], [ -99.175239158794284, 19.419064689427614 ], [ -99.175326582044363, 19.419000232592225 ], [ -99.175349297001958, 19.418976847082376 ], [ -99.175379555672407, 19.418985061347485 ], [ -99.1754593513906, 19.418987827375531 ], [ -99.175493465736508, 19.418997466564178 ], [ -99.17550285346806, 19.419003585353494 ], [ -99.175466727465391, 19.419001238420606 ], [ -99.175481982529163, 19.418888753280044 ], [ -99.175439653918147, 19.418823877349496 ], [ -99.175410652533174, 19.418777776882052 ], [ -99.175399336963892, 19.418768221512437 ], [ -99.17537628673017, 19.41875665448606 ], [ -99.175362540408969, 19.418724048882723 ], [ -99.175359522923827, 19.418711140751839 ], [ -99.175355164334178, 19.418696137145162 ], [ -99.175344351679087, 19.41869261674583 ], [ -99.175340663641691, 19.418688593432307 ], [ -99.175341334193945, 19.418686078861356 ], [ -99.17534158565104, 19.418681217357516 ], [ -99.175340244546533, 19.418678618967533 ], [ -99.175338484346867, 19.418679373338819 ], [ -99.175341250374913, 19.41867551766336 ], [ -99.175343932583928, 19.418674176558852 ], [ -99.175357427448034, 19.41867358982563 ], [ -99.175357259809971, 19.418677445501089 ], [ -99.175348877906799, 19.41868188790977 ], [ -99.175340244546533, 19.41868431866169 ], [ -99.175342172384262, 19.418685659766197 ], [ -99.175334628671408, 19.418689599260688 ], [ -99.175331359729171, 19.418687336146832 ], [ -99.175320127978921, 19.418691778555512 ], [ -99.175329431891441, 19.418699322268367 ], [ -99.175313841551542, 19.418708542361856 ], [ -99.175304118543863, 19.418709464371204 ], [ -99.175307052209973, 19.418712481856346 ], [ -99.175309566780925, 19.418705692514777 ], [ -99.175311494618654, 19.418701669201255 ], [ -99.175317361950874, 19.418700998649001 ], [ -99.175310656428337, 19.418706027790904 ], [ -99.175313087180257, 19.418697478249669 ], [ -99.17531861923635, 19.418686497956514 ], [ -99.175325827673078, 19.418675852939487 ], [ -99.175338316708803, 19.418673254549503 ], [ -99.175339993089437, 19.418678535148501 ], [ -99.175356756895781, 19.418681971728802 ], [ -99.175342842936516, 19.418680379167199 ], [ -99.175337646156549, 19.418681217357516 ], [ -99.175354074686766, 19.418690353631973 ], [ -99.175362456589937, 19.418688761070371 ], [ -99.175358936190605, 19.418691443279386 ], [ -99.175358852371573, 19.418688341975212 ], [ -99.175354745239019, 19.41868431866169 ], [ -99.175356756895781, 19.418684989213943 ], [ -99.175346195697784, 19.418686665594578 ], [ -99.175339573994279, 19.418689180165529 ], [ -99.175327336415648, 19.418692197650671 ], [ -99.175325827673078, 19.418698651716113 ], [ -99.175325827673078, 19.41869655624032 ], [ -99.175323145464063, 19.418692449107766 ], [ -99.175331443548203, 19.418700747191906 ], [ -99.175334628671408, 19.418698819354177 ], [ -99.175365557894111, 19.41870535723865 ], [ -99.175408221781254, 19.418705860152841 ], [ -99.175401097163558, 19.418706865981221 ], [ -99.175395481288433, 19.418703261762857 ], [ -99.175394140183926, 19.418704770505428 ], [ -99.17539824731648, 19.418708793818951 ], [ -99.175393972545862, 19.418711895123124 ], [ -99.175377041101456, 19.418708961457014 ], [ -99.175375867635012, 19.418707620352507 ], [ -99.175376957282424, 19.418707536533475 ], [ -99.175362624228001, 19.418704686686397 ], [ -99.175320379436016, 19.41867358982563 ], [ -99.175302442163229, 19.418674930930138 ], [ -99.175297748297453, 19.418674930930138 ], [ -99.175299257040024, 19.418678032234311 ], [ -99.175302777439356, 19.418682977557182 ], [ -99.175309482961893, 19.418686078861356 ], [ -99.175321469083428, 19.418681971728802 ], [ -99.175330689176917, 19.418680379167199 ], [ -99.17532792314887, 19.418674344196916 ], [ -99.175295820459723, 19.418701753020287 ], [ -99.175303364172578, 19.418715750798583 ], [ -99.175305794924498, 19.418718433007598 ], [ -99.175308141857386, 19.418715499341488 ], [ -99.175303867086768, 19.418714661151171 ], [ -99.175308560952544, 19.418712146580219 ], [ -99.175315350294113, 19.418712481856346 ], [ -99.175321469083428, 19.418707536533475 ], [ -99.175321720540524, 19.418701585382223 ], [ -99.17531912215054, 19.418701669201255 ], [ -99.175318954512477, 19.418704519048333 ], [ -99.175313925370574, 19.418707536533475 ], [ -99.175322139635682, 19.418705692514777 ], [ -99.175331192091107, 19.418699992820621 ], [ -99.175320295616984, 19.418703932315111 ], [ -99.175316691398621, 19.418705943971872 ], [ -99.175312835723162, 19.418710554018617 ], [ -99.175305627286434, 19.418711476027966 ], [ -99.175304537639022, 19.418711727485061 ], [ -99.175308393314481, 19.418713990598917 ], [ -99.175320630893111, 19.41870728507638 ], [ -99.175324738025665, 19.418700244277716 ], [ -99.175329683348536, 19.418699070811272 ], [ -99.17533228173852, 19.418699657544494 ], [ -99.175325073301792, 19.418712230399251 ], [ -99.175359690561891, 19.418717678636312 ], [ -99.175361786037683, 19.418705273419619 ], [ -99.175358265638351, 19.418695885688066 ], [ -99.175351141020656, 19.418692868202925 ], [ -99.175356589257717, 19.418685492128134 ], [ -99.175347033888102, 19.418683648109436 ], [ -99.175347788259387, 19.418674679473042 ], [ -99.175342256203294, 19.418680630624294 ], [ -99.175339993089437, 19.418689431622624 ], [ -99.175351979210973, 19.41869898699224 ], [ -99.175357343629003, 19.418694460764527 ], [ -99.175358852371573, 19.418691778555512 ], [ -99.175368156284094, 19.418687922880054 ], [ -99.175376454368234, 19.418678786605597 ], [ -99.175371341407299, 19.418670488521457 ], [ -99.17536212131381, 19.418674176558852 ], [ -99.175361366942525, 19.418670572340488 ], [ -99.175359858199954, 19.418684067204595 ], [ -99.175354829058051, 19.418689766898751 ], [ -99.175354242324829, 19.418691862374544 ], [ -99.175336556509137, 19.418702591210604 ], [ -99.175333539023995, 19.418683899566531 ], [ -99.175325492396951, 19.418685659766197 ], [ -99.175298167392612, 19.418686246499419 ], [ -99.175342172384262, 19.418670991435647 ], [ -99.175357259809971, 19.418659172952175 ], [ -99.175436049699783, 19.418634697794914 ], [ -99.175426997244358, 19.418637799099088 ], [ -99.175426326692104, 19.418638218194246 ], [ -99.175398331135511, 19.418617095798254 ], [ -99.175398666411638, 19.418606283143163 ], [ -99.175394726917148, 19.418605361133814 ], [ -99.175399169325829, 19.418604858219624 ], [ -99.175399336963892, 19.418602427467704 ], [ -99.175378382205963, 19.418652299791574 ], [ -99.17537871748209, 19.418648444116116 ], [ -99.175376789644361, 19.418658167123795 ], [ -99.175386680290103, 19.418648779392242 ], [ -99.175428254529834, 19.418599745258689 ], [ -99.175430769100785, 19.418587172403932 ], [ -99.175426578149199, 19.418583819642663 ], [ -99.175426661968231, 19.418592872098088 ], [ -99.175425991415977, 19.418600834906101 ], [ -99.175424063578248, 19.418620783835649 ], [ -99.175421465188265, 19.418624639511108 ], [ -99.175417190417647, 19.418634781613946 ], [ -99.175409730523825, 19.418631764128804 ], [ -99.175397744402289, 19.418640648946166 ], [ -99.17540118098259, 19.418649030849338 ], [ -99.175384249538183, 19.418661268427968 ], [ -99.175351057201624, 19.41870535723865 ], [ -99.175352230668068, 19.418703177943826 ], [ -99.17535625398159, 19.418704267591238 ], [ -99.175351392477751, 19.418702926486731 ], [ -99.175365222617984, 19.418674176558852 ], [ -99.175367821007967, 19.418662944808602 ], [ -99.175368659198284, 19.418667554855347 ], [ -99.175348626449704, 19.418676272034645 ], [ -99.175349632278085, 19.41867652349174 ], [ -99.17535332031548, 19.418676272034645 ], [ -99.17534795589745, 19.418674176558852 ], [ -99.175340496003628, 19.418686330318451 ], [ -99.175344770774245, 19.418678367510438 ], [ -99.175348794087768, 19.418682055547833 ], [ -99.175348961725831, 19.418681636452675 ], [ -99.175348794087768, 19.418686581775546 ], [ -99.175339238718152, 19.418686833232641 ], [ -99.175346279516816, 19.418667387217283 ], [ -99.175363965332508, 19.418652970343828 ], [ -99.17536698281765, 19.418658167123795 ], [ -99.175398666411638, 19.41871264949441 ], [ -99.175444934517145, 19.418746344745159 ], [ -99.175480138510466, 19.418840138241649 ], [ -99.175509223714471, 19.418859584257007 ], [ -99.175509726628661, 19.418841563165188 ], [ -99.17559128254652, 19.41883678548038 ], [ -99.175648028030992, 19.418864361941814 ], [ -99.175702258944511, 19.419067455455661 ], [ -99.175770487636328, 19.419188825413585 ], [ -99.175816839560866, 19.419251186773181 ], [ -99.175878195092082, 19.419296449050307 ], [ -99.175891689956188, 19.419308938086033 ], [ -99.175939885899425, 19.41938353702426 ], [ -99.176036026328802, 19.419424440711737 ], [ -99.176162844523787, 19.419447323307395 ], [ -99.17617617174983, 19.419459644705057 ], [ -99.176176339387894, 19.419471463188529 ], [ -99.176169717684388, 19.419511025771499 ], [ -99.176170472055674, 19.419515216723084 ], [ -99.17619519867003, 19.419542960822582 ], [ -99.176178686320782, 19.419535584747791 ], [ -99.176173824816942, 19.419530052691698 ], [ -99.17617516592145, 19.419508595019579 ], [ -99.176169466227293, 19.419495519250631 ], [ -99.176150858402252, 19.419489065185189 ], [ -99.176180027425289, 19.419498955830932 ], [ -99.176212716847658, 19.419515551999211 ], [ -99.176213890314102, 19.419534830376506 ], [ -99.176244484260678, 19.419581852853298 ], [ -99.176252279430628, 19.41958193667233 ], [ -99.176261918619275, 19.419576488435268 ], [ -99.176246076822281, 19.419597359374166 ], [ -99.176091598346829, 19.419543882831931 ], [ -99.176007276400924, 19.419460482895374 ], [ -99.175932426005602, 19.419391667470336 ], [ -99.175857324153185, 19.419323354959488 ], [ -99.175793118774891, 19.419222855940461 ], [ -99.175653476268053, 19.41908354870975 ], [ -99.175640651956201, 19.419066365808249 ], [ -99.175773086026311, 19.41898045130074 ], [ -99.175750957801938, 19.418783644214272 ], [ -99.175732852891088, 19.418804598972201 ], [ -99.175738384947181, 19.418904092162848 ], [ -99.175742827355862, 19.418915826827288 ], [ -99.175514839589596, 19.419144736602902 ], [ -99.175637131556869, 19.419080950319767 ], [ -99.175610393285751, 19.419042393565178 ], [ -99.175672419369221, 19.41897165030241 ], [ -99.175652135163546, 19.418914653360844 ], [ -99.175604525953531, 19.418864529579878 ], [ -99.175552893429995, 19.418783728033304 ], [ -99.175529088824987, 19.418753888458014 ], [ -99.175452226772904, 19.41867945715785 ], [ -99.175324067473412, 19.418578036129475 ], [ -99.175245529040694, 19.418502934277058 ], [ -99.175144275650382, 19.418423222377896 ], [ -99.175088116899133, 19.418305791914463 ], [ -99.17509725317359, 19.418222727254033 ], [ -99.175095073878765, 19.418200347572565 ], [ -99.175081830471754, 19.418149469420314 ], [ -99.175047967582941, 19.418063051998615 ], [ -99.175016283988953, 19.417944699525833 ], [ -99.175063893198967, 19.417755352333188 ], [ -99.175134720280766, 19.417593330144882 ], [ -99.175171265378594, 19.417503727599978 ], [ -99.175191046670079, 19.417490819469094 ], [ -99.175205798819661, 19.417441533878446 ], [ -99.175279559567571, 19.417346734553576 ], [ -99.175369162112474, 19.417148921638727 ], [ -99.175459435209632, 19.417035933583975 ], [ -99.175535878166556, 19.416961586102843 ], [ -99.175576530396938, 19.416890842840075 ], [ -99.175560269504786, 19.416876845061779 ], [ -99.175551636144519, 19.416870977729559 ], [ -99.175547193735838, 19.4168671220541 ], [ -99.175500590354204, 19.416795456781983 ], [ -99.17541392147541, 19.416730832308531 ], [ -99.175316020846367, 19.416677691042423 ], [ -99.175220299512148, 19.416645336896181 ], [ -99.175160368904471, 19.416616335511208 ], [ -99.175098929554224, 19.41658666357398 ], [ -99.175092726945877, 19.416576437652111 ], [ -99.175012931227684, 19.416550537571311 ], [ -99.174956940114498, 19.416508292779326 ], [ -99.17485979385674, 19.416424725204706 ], [ -99.174836073070765, 19.416410392150283 ], [ -99.174786619842052, 19.416390275582671 ], [ -99.174826517701149, 19.416232528164983 ], [ -99.1748031321913, 19.416254991665483 ], [ -99.174793744459748, 19.416279383003712 ], [ -99.174808328971267, 19.416255578398705 ], [ -99.174806820228696, 19.41622263751924 ], [ -99.174811681732535, 19.416193552315235 ], [ -99.174821572378278, 19.416188942268491 ], [ -99.174826936796308, 19.416171675547957 ] ] ] } }
]
}
